{"type":"FeatureCollection", "features": [
{"type":"Feature","geometry":{"type":"Polygon","coordinates":[[[-74.1699,39.727],[-74.1689,39.7271],[-74.1676,39.7258],[-74.1684,39.725],[-74.1683,39.7242],[-74.1669,39.7241],[-74.1656,39.7232],[-74.1656,39.7219],[-74.166,39.7204],[-74.1637,39.7174],[-74.165,39.716],[-74.1647,39.7145],[-74.165,39.7138],[-74.1631,39.7133],[-74.1611,39.7142],[-74.1601,39.7142],[-74.1602,39.713],[-74.1586,39.7113],[-74.1592,39.7107],[-74.1614,39.7109],[-74.1608,39.712],[-74.1613,39.7125],[-74.1629,39.7106],[-74.1627,39.7098],[-74.1651,39.7098],[-74.1681,39.7089],[-74.17,39.7063],[-74.1693,39.7051],[-74.1692,39.7039],[-74.1682,39.7028],[-74.1701,39.7028],[-74.1697,39.7004],[-74.1707,39.6994],[-74.1737,39.6983],[-74.1755,39.6968],[-74.1766,39.6962],[-74.1764,39.6953],[-74.178,39.6933],[-74.1797,39.6922],[-74.1821,39.6914],[-74.1831,39.6907],[-74.184,39.6893],[-74.1867,39.687],[-74.1882,39.6863],[-74.1895,39.6867],[-74.1906,39.6863],[-74.1911,39.685],[-74.1906,39.6841],[-74.193,39.683],[-74.1931,39.6812],[-74.1935,39.6795],[-74.1925,39.6798],[-74.1918,39.6805],[-74.1894,39.6803],[-74.1892,39.6794],[-74.1884,39.6789],[-74.1892,39.6783],[-74.1895,39.6769],[-74.1901,39.676],[-74.1919,39.6764],[-74.1904,39.6641],[-74.1895,39.6614],[-74.1885,39.6602],[-74.1888,39.6597],[-74.1877,39.6585],[-74.1868,39.6586],[-74.1857,39.6578],[-74.1844,39.6582],[-74.1835,39.6592],[-74.1827,39.6586],[-74.1813,39.6587],[-74.1795,39.6567],[-74.1778,39.6566],[-74.1769,39.6578],[-74.1791,39.659],[-74.1787,39.6596],[-74.1803,39.6615],[-74.1801,39.6621],[-74.1781,39.662],[-74.1764,39.6612],[-74.1756,39.6621],[-74.1749,39.662],[-74.1739,39.6628],[-74.1744,39.6648],[-74.1722,39.6648],[-74.1708,39.666],[-74.1701,39.6656],[-74.1672,39.668],[-74.1651,39.6687],[-74.1646,39.6686],[-74.1637,39.6695],[-74.1627,39.6712],[-74.1605,39.6728],[-74.1598,39.6729],[-74.159,39.6747],[-74.1579,39.675],[-74.1546,39.6787],[-74.1553,39.6791],[-74.1542,39.6806],[-74.1531,39.6811],[-74.1523,39.6823],[-74.1527,39.6842],[-74.1491,39.6856],[-74.1493,39.6864],[-74.1517,39.6874],[-74.1485,39.6875],[-74.1473,39.6879],[-74.1463,39.6889],[-74.1453,39.691],[-74.1441,39.6914],[-74.1443,39.6928],[-74.1458,39.6933],[-74.1438,39.694],[-74.1428,39.6949],[-74.1413,39.6956],[-74.14,39.697],[-74.1402,39.6976],[-74.1418,39.6971],[-74.1436,39.6963],[-74.1445,39.6951],[-74.1459,39.6962],[-74.1459,39.6973],[-74.145,39.6975],[-74.1444,39.6983],[-74.1444,39.6991],[-74.1451,39.7006],[-74.145,39.7008],[-74.1447,39.7014],[-74.1443,39.7018],[-74.1433,39.7034],[-74.1425,39.7031],[-74.1423,39.703],[-74.1414,39.7027],[-74.1411,39.7026],[-74.1406,39.7024],[-74.1403,39.7023],[-74.139,39.7021],[-74.1379,39.7025],[-74.1374,39.7033],[-74.1367,39.7058],[-74.1355,39.706],[-74.1349,39.707],[-74.1379,39.7079],[-74.1371,39.7098],[-74.1353,39.7112],[-74.1346,39.7104],[-74.1343,39.7104],[-74.1344,39.712],[-74.1335,39.713],[-74.1325,39.7149],[-74.1321,39.7148],[-74.1318,39.7149],[-74.1304,39.7188],[-74.1299,39.7191],[-74.1301,39.7208],[-74.1319,39.7207],[-74.1328,39.7211],[-74.1343,39.7229],[-74.1357,39.7261],[-74.1346,39.7262],[-74.1339,39.7249],[-74.1332,39.7244],[-74.1334,39.7252],[-74.1332,39.7254],[-74.1337,39.7263],[-74.1329,39.7265],[-74.1323,39.7257],[-74.1314,39.7257],[-74.1318,39.7265],[-74.1315,39.7267],[-74.1302,39.7272],[-74.1297,39.7271],[-74.1285,39.7275],[-74.1278,39.7276],[-74.1262,39.7279],[-74.1257,39.728],[-74.1267,39.7283],[-74.1272,39.7282],[-74.1281,39.728],[-74.1285,39.728],[-74.1295,39.7277],[-74.1299,39.7277],[-74.131,39.7275],[-74.1314,39.7274],[-74.1338,39.7269],[-74.1346,39.7271],[-74.1342,39.729],[-74.1345,39.7297],[-74.1335,39.7312],[-74.1322,39.732],[-74.1305,39.7321],[-74.1297,39.7319],[-74.1262,39.7326],[-74.1246,39.7327],[-74.1234,39.7334],[-74.123,39.7341],[-74.122,39.7343],[-74.1226,39.7358],[-74.1234,39.7367],[-74.1233,39.7369],[-74.1225,39.7383],[-74.1214,39.7379],[-74.1207,39.739],[-74.1208,39.7395],[-74.1224,39.74],[-74.1227,39.7401],[-74.124,39.7406],[-74.1233,39.7418],[-74.1221,39.7416],[-74.1209,39.7419],[-74.1193,39.7427],[-74.1182,39.7445],[-74.1173,39.7465],[-74.1161,39.7476],[-74.1165,39.7489],[-74.1188,39.7503],[-74.1202,39.7495],[-74.1213,39.7486],[-74.1224,39.7485],[-74.1242,39.7501],[-74.1247,39.7501],[-74.1247,39.7522],[-74.1269,39.754],[-74.1275,39.7555],[-74.1273,39.7574],[-74.1271,39.7575],[-74.1261,39.7581],[-74.1247,39.7581],[-74.1237,39.7578],[-74.122,39.7578],[-74.1206,39.7585],[-74.1199,39.7597],[-74.1197,39.7608],[-74.1203,39.7639],[-74.1204,39.7656],[-74.1216,39.7682],[-74.1235,39.7679],[-74.1242,39.7691],[-74.1251,39.7719],[-74.1246,39.7732],[-74.1233,39.7741],[-74.1209,39.7742],[-74.1194,39.7736],[-74.1186,39.773],[-74.1174,39.7704],[-74.1185,39.7673],[-74.1191,39.7671],[-74.1193,39.7632],[-74.119,39.762],[-74.119,39.7605],[-74.1194,39.7596],[-74.1185,39.7577],[-74.1165,39.7563],[-74.1167,39.7553],[-74.1187,39.7553],[-74.1188,39.7546],[-74.1175,39.7543],[-74.1162,39.7546],[-74.1155,39.7542],[-74.1155,39.7534],[-74.1174,39.7535],[-74.1165,39.7512],[-74.1158,39.7501],[-74.1142,39.7501],[-74.1125,39.7518],[-74.1128,39.7531],[-74.1119,39.7552],[-74.1122,39.7568],[-74.1109,39.7589],[-74.1101,39.7615],[-74.11,39.7618],[-74.1084,39.7631],[-74.1066,39.764],[-74.1062,39.7645],[-74.1044,39.7646],[-74.1021,39.7694],[-74.1014,39.7699],[-74.1018,39.7715],[-74.108,39.7747],[-74.108,39.7748],[-74.1095,39.7755],[-74.1179,39.7805],[-74.1187,39.781],[-74.1205,39.7852],[-74.1212,39.7889],[-74.1211,39.7896],[-74.1211,39.7907],[-74.1205,39.7959],[-74.1208,39.7965],[-74.1203,39.7975],[-74.1192,39.7976],[-74.1177,39.7973],[-74.1171,39.797],[-74.1163,39.7955],[-74.1144,39.794],[-74.1137,39.793],[-74.1121,39.7907],[-74.1109,39.79],[-74.1089,39.7899],[-74.108,39.7895],[-74.1056,39.7857],[-74.105,39.7853],[-74.1025,39.7845],[-74.1019,39.7842],[-74.1014,39.784],[-74.1007,39.7835],[-74.0992,39.7834],[-74.0955,39.7817],[-74.0962,39.7832],[-74.0972,39.7845],[-74.0967,39.7859],[-74.0968,39.7882],[-74.097,39.7895],[-74.0979,39.7906],[-74.1015,39.7943],[-74.1022,39.7947],[-74.1029,39.7961],[-74.1029,39.7974],[-74.1034,39.798],[-74.1034,39.7995],[-74.1026,39.8007],[-74.1013,39.8015],[-74.1005,39.8026],[-74.1003,39.8028],[-74.097,39.8116],[-74.0967,39.8133],[-74.0963,39.8137],[-74.0952,39.8169],[-74.0947,39.8201],[-74.0947,39.8215],[-74.0938,39.823],[-74.0935,39.8248],[-74.0931,39.8254],[-74.0929,39.828],[-74.0921,39.8297],[-74.0919,39.8334],[-74.0912,39.836],[-74.0926,39.8398],[-74.0921,39.8418],[-74.0903,39.844],[-74.0902,39.8451],[-74.091,39.8456],[-74.0913,39.847],[-74.09,39.8508],[-74.0893,39.8517],[-74.0899,39.8531],[-74.0894,39.8539],[-74.0895,39.8551],[-74.09,39.8569],[-74.0882,39.8592],[-74.0878,39.8604],[-74.0891,39.862],[-74.0894,39.863],[-74.0887,39.8649],[-74.0879,39.8659],[-74.0872,39.8677],[-74.0876,39.869],[-74.0872,39.8712],[-74.0877,39.872],[-74.0874,39.8734],[-74.0875,39.8768],[-74.0874,39.8782],[-74.0865,39.8803],[-74.0854,39.882],[-74.0849,39.8836],[-74.0849,39.8862],[-74.0858,39.8883],[-74.0861,39.8905],[-74.0874,39.8923],[-74.0892,39.8939],[-74.0897,39.8949],[-74.0896,39.8968],[-74.0885,39.8987],[-74.0857,39.9007],[-74.0849,39.9022],[-74.0851,39.9038],[-74.0858,39.9043],[-74.0876,39.9049],[-74.0873,39.9061],[-74.0858,39.908],[-74.0861,39.9091],[-74.088,39.9093],[-74.0871,39.9113],[-74.0858,39.912],[-74.0855,39.9131],[-74.0859,39.9137],[-74.0839,39.9159],[-74.0831,39.9166],[-74.0813,39.9187],[-74.0807,39.9205],[-74.0809,39.9213],[-74.0797,39.9241],[-74.0797,39.9276],[-74.0806,39.93],[-74.0788,39.93],[-74.0784,39.9305],[-74.0808,39.9301],[-74.0812,39.9303],[-74.0817,39.9304],[-74.0843,39.9307],[-74.0841,39.9319],[-74.0794,39.9315],[-74.0792,39.9332],[-74.0839,39.9337],[-74.0838,39.9342],[-74.0794,39.9338],[-74.0794,39.9341],[-74.0838,39.9345],[-74.0836,39.9348],[-74.08,39.9345],[-74.0794,39.9361],[-74.0804,39.9374],[-74.0813,39.9376],[-74.0828,39.9402],[-74.0838,39.9414],[-74.0837,39.9415],[-74.0837,39.9416],[-74.0842,39.9417],[-74.0837,39.9417],[-74.082,39.9423],[-74.0803,39.9439],[-74.0798,39.9454],[-74.08,39.9461],[-74.0798,39.9478],[-74.081,39.9483],[-74.0814,39.9494],[-74.0816,39.9497],[-74.0831,39.9548],[-74.0821,39.9544],[-74.0816,39.9535],[-74.0792,39.9531],[-74.0791,39.9539],[-74.0806,39.9536],[-74.0813,39.9544],[-74.0823,39.9548],[-74.0827,39.9554],[-74.0818,39.9559],[-74.0829,39.9567],[-74.0833,39.9581],[-74.083,39.9585],[-74.0809,39.9573],[-74.0804,39.9566],[-74.0795,39.9568],[-74.0795,39.9569],[-74.0799,39.957],[-74.0799,39.9601],[-74.0787,39.9594],[-74.0777,39.9608],[-74.0777,39.9617],[-74.078,39.9617],[-74.0781,39.9607],[-74.0793,39.9611],[-74.0808,39.961],[-74.0832,39.9618],[-74.0845,39.9625],[-74.0854,39.9641],[-74.0851,39.9651],[-74.0826,39.9659],[-74.0821,39.9665],[-74.0788,39.9682],[-74.0775,39.9684],[-74.076,39.9681],[-74.0753,39.9682],[-74.0741,39.97],[-74.0742,39.9708],[-74.0733,39.9728],[-74.0724,39.9732],[-74.0717,39.9745],[-74.0715,39.976],[-74.072,39.9774],[-74.0719,39.978],[-74.0731,39.9783],[-74.0745,39.9777],[-74.0744,39.9786],[-74.0753,39.979],[-74.0746,39.98],[-74.0742,39.9803],[-74.073,39.9809],[-74.0738,39.9815],[-74.0733,39.9821],[-74.0691,39.9817],[-74.069,39.9819],[-74.0733,39.9825],[-74.0743,39.9831],[-74.0742,39.984],[-74.0732,39.9844],[-74.07,39.9841],[-74.0701,39.9849],[-74.0716,39.9845],[-74.0734,39.9846],[-74.0738,39.9859],[-74.0721,39.9857],[-74.0716,39.9851],[-74.0699,39.9859],[-74.0709,39.9871],[-74.0723,39.987],[-74.0721,39.9879],[-74.0711,39.9889],[-74.0683,39.9884],[-74.0681,39.9893],[-74.0694,39.9901],[-74.0702,39.9906],[-74.0717,39.9909],[-74.0735,39.9923],[-74.0734,39.9929],[-74.071,39.9922],[-74.07,39.9924],[-74.0691,39.9927],[-74.0676,39.9927],[-74.0667,39.9937],[-74.067,39.9946],[-74.068,39.9952],[-74.0671,39.9983],[-74.0675,39.9992],[-74.0666,40.0005],[-74.0665,40.0007],[-74.0662,40.0014],[-74.069,40.0022],[-74.0686,40.0029],[-74.0654,40.0019],[-74.0648,40.003],[-74.0687,40.0043],[-74.0683,40.005],[-74.067,40.0049],[-74.0636,40.0072],[-74.0634,40.0078],[-74.0623,40.0083],[-74.0614,40.0081],[-74.0607,40.008],[-74.0604,40.0096],[-74.0596,40.0095],[-74.0595,40.0113],[-74.0589,40.0132],[-74.0597,40.014],[-74.0597,40.0145],[-74.0619,40.0141],[-74.0654,40.012],[-74.0662,40.0129],[-74.0633,40.0147],[-74.0628,40.0157],[-74.063,40.0169],[-74.0627,40.0174],[-74.0625,40.0196],[-74.0634,40.0198],[-74.0634,40.0212],[-74.0612,40.0218],[-74.0572,40.022],[-74.0564,40.0215],[-74.0567,40.0238],[-74.0557,40.0248],[-74.0567,40.0252],[-74.0583,40.0241],[-74.0583,40.0236],[-74.064,40.0218],[-74.0648,40.0237],[-74.0637,40.024],[-74.0634,40.0241],[-74.0608,40.0248],[-74.0574,40.0281],[-74.0551,40.028],[-74.0544,40.0314],[-74.0529,40.0343],[-74.053,40.0358],[-74.0535,40.0374],[-74.0534,40.0384],[-74.0513,40.0406],[-74.0501,40.0451],[-74.05,40.0458],[-74.0508,40.0467],[-74.0496,40.0482],[-74.0488,40.0545],[-74.0492,40.0541],[-74.0496,40.0528],[-74.0507,40.0538],[-74.051,40.0548],[-74.0507,40.0563],[-74.0522,40.0568],[-74.0518,40.0575],[-74.0509,40.0571],[-74.05,40.0572],[-74.0487,40.0601],[-74.049,40.0618],[-74.0488,40.0628],[-74.0478,40.0632],[-74.0475,40.0654],[-74.0466,40.0659],[-74.0458,40.0682],[-74.0459,40.0693],[-74.0455,40.0705],[-74.0459,40.0706],[-74.046,40.0683],[-74.0467,40.0672],[-74.0467,40.067],[-74.0499,40.0666],[-74.0516,40.059],[-74.0521,40.0591],[-74.0528,40.0576],[-74.0528,40.0562],[-74.0517,40.0553],[-74.0511,40.0543],[-74.0502,40.0505],[-74.0525,40.0448],[-74.0548,40.0405],[-74.0564,40.0406],[-74.0588,40.0392],[-74.0593,40.0394],[-74.0604,40.0385],[-74.0623,40.0391],[-74.0631,40.0381],[-74.0623,40.0372],[-74.0613,40.0371],[-74.0616,40.0362],[-74.0607,40.0353],[-74.0614,40.0341],[-74.0621,40.0354],[-74.0631,40.0359],[-74.065,40.0351],[-74.0668,40.0341],[-74.0685,40.0323],[-74.0684,40.0312],[-74.0719,40.0302],[-74.0746,40.0305],[-74.0751,40.0303],[-74.0762,40.0304],[-74.0769,40.0296],[-74.0777,40.0294],[-74.0777,40.0281],[-74.079,40.028],[-74.0799,40.0273],[-74.0827,40.0257],[-74.0824,40.0245],[-74.0835,40.0238],[-74.0834,40.0233],[-74.082,40.0227],[-74.0803,40.0237],[-74.0795,40.0245],[-74.078,40.0231],[-74.0771,40.0228],[-74.077,40.0218],[-74.0784,40.0197],[-74.08,40.0184],[-74.0807,40.0183],[-74.0841,40.0169],[-74.0848,40.0158],[-74.085,40.0155],[-74.0847,40.0141],[-74.0858,40.0131],[-74.0881,40.0128],[-74.0902,40.0137],[-74.0903,40.0141],[-74.0939,40.0146],[-74.094,40.0159],[-74.0982,40.0148],[-74.098,40.0158],[-74.099,40.016],[-74.1006,40.0151],[-74.1016,40.0162],[-74.1031,40.0164],[-74.1036,40.0164],[-74.1046,40.0167],[-74.1054,40.0142],[-74.106,40.0146],[-74.1091,40.0157],[-74.1104,40.0183],[-74.1118,40.0191],[-74.1158,40.0202],[-74.121,40.0206],[-74.1227,40.0204],[-74.1241,40.0197],[-74.1273,40.0188],[-74.1315,40.0191],[-74.1323,40.0188],[-74.1365,40.0187],[-74.1392,40.0188],[-74.14,40.0184],[-74.1419,40.0184],[-74.1413,40.0178],[-74.1403,40.0178],[-74.1393,40.0185],[-74.1376,40.0186],[-74.1354,40.0182],[-74.1342,40.0186],[-74.132,40.0184],[-74.1311,40.0186],[-74.1275,40.0175],[-74.1246,40.0181],[-74.121,40.0179],[-74.1204,40.0176],[-74.1157,40.017],[-74.1149,40.0165],[-74.1147,40.0162],[-74.1139,40.0157],[-74.1141,40.0148],[-74.1141,40.0144],[-74.1141,40.0139],[-74.1122,40.0123],[-74.1103,40.0121],[-74.1081,40.0131],[-74.1073,40.0127],[-74.1071,40.0092],[-74.1092,40.0052],[-74.1091,40.004],[-74.1106,40.0031],[-74.1116,40.0021],[-74.1159,40.0012],[-74.117,40.0012],[-74.1193,40.002],[-74.1219,40.002],[-74.1234,40.0012],[-74.1247,40.0012],[-74.1249,40.0012],[-74.1259,40.0008],[-74.1282,40.0003],[-74.1292,40.001],[-74.1323,40.0016],[-74.1339,40.0021],[-74.136,40.0039],[-74.1377,40.0037],[-74.1387,40.0041],[-74.1437,40.0045],[-74.1446,40.0049],[-74.1452,40.006],[-74.1468,40.0056],[-74.1494,40.0061],[-74.1452,40.0052],[-74.1438,40.0043],[-74.1426,40.0039],[-74.1413,40.004],[-74.1387,40.0036],[-74.1356,40.0015],[-74.1335,40.0007],[-74.1309,40.0008],[-74.1285,40.0002],[-74.1265,40.0002],[-74.121,40.0011],[-74.1182,40.0007],[-74.1165,40.0006],[-74.1148,40.0009],[-74.1143,40.0001],[-74.1028,39.9978],[-74.0995,39.9972],[-74.0999,39.979],[-74.0998,39.974],[-74.0995,39.9708],[-74.0989,39.9677],[-74.1126,39.9684],[-74.112,39.9677],[-74.1107,39.9673],[-74.1117,39.9663],[-74.1134,39.9656],[-74.1133,39.9651],[-74.1139,39.9645],[-74.1142,39.9644],[-74.1149,39.964],[-74.1152,39.9639],[-74.1178,39.9624],[-74.1195,39.9621],[-74.121,39.9656],[-74.1234,39.9666],[-74.1236,39.9664],[-74.1214,39.9654],[-74.12,39.9619],[-74.1206,39.9615],[-74.1228,39.961],[-74.1245,39.9622],[-74.1253,39.9624],[-74.1258,39.9628],[-74.1283,39.963],[-74.1271,39.9622],[-74.126,39.9625],[-74.1237,39.9612],[-74.1236,39.9605],[-74.1223,39.9605],[-74.1217,39.9601],[-74.1203,39.9606],[-74.1185,39.9605],[-74.1164,39.9594],[-74.1154,39.9597],[-74.1151,39.9585],[-74.1146,39.9577],[-74.1134,39.9577],[-74.1123,39.9581],[-74.1118,39.9563],[-74.1123,39.9556],[-74.1203,39.956],[-74.1201,39.9581],[-74.1206,39.9581],[-74.1207,39.9561],[-74.1223,39.9559],[-74.112,39.9552],[-74.1114,39.9564],[-74.1116,39.9582],[-74.1129,39.9583],[-74.1129,39.959],[-74.112,39.96],[-74.112,39.9622],[-74.1109,39.9618],[-74.1109,39.9604],[-74.1097,39.9584],[-74.1098,39.9568],[-74.1093,39.9559],[-74.1105,39.9542],[-74.1109,39.9526],[-74.1137,39.9527],[-74.1136,39.9541],[-74.1179,39.9546],[-74.1178,39.9544],[-74.114,39.9541],[-74.114,39.9536],[-74.1179,39.9537],[-74.1179,39.9535],[-74.114,39.9533],[-74.1141,39.9527],[-74.118,39.9529],[-74.118,39.9527],[-74.1118,39.9523],[-74.112,39.9516],[-74.1181,39.952],[-74.1181,39.9517],[-74.1153,39.9516],[-74.1159,39.9509],[-74.1145,39.9503],[-74.1143,39.9511],[-74.1127,39.951],[-74.1139,39.9496],[-74.1148,39.949],[-74.1151,39.9481],[-74.1162,39.9485],[-74.1167,39.9472],[-74.1195,39.9475],[-74.1195,39.9472],[-74.1168,39.947],[-74.117,39.9464],[-74.1197,39.9466],[-74.1198,39.9463],[-74.1167,39.9461],[-74.1161,39.9479],[-74.1151,39.9478],[-74.1163,39.9449],[-74.1058,39.9311],[-74.1053,39.9304],[-74.1061,39.9291],[-74.1064,39.9264],[-74.106,39.9259],[-74.1071,39.9248],[-74.1075,39.9233],[-74.1083,39.9233],[-74.1082,39.925],[-74.1071,39.9263],[-74.1084,39.9266],[-74.1092,39.926],[-74.1085,39.9255],[-74.1091,39.9245],[-74.1105,39.9249],[-74.1101,39.9266],[-74.1104,39.9269],[-74.109,39.9284],[-74.1101,39.9283],[-74.1102,39.9275],[-74.1116,39.9268],[-74.1113,39.9252],[-74.1107,39.9248],[-74.1105,39.9237],[-74.1111,39.9229],[-74.1123,39.9224],[-74.1097,39.9216],[-74.1089,39.9229],[-74.1077,39.923],[-74.1077,39.9205],[-74.1098,39.9201],[-74.1101,39.9194],[-74.1119,39.9191],[-74.112,39.9183],[-74.1138,39.9169],[-74.1145,39.9161],[-74.1145,39.9153],[-74.1167,39.9142],[-74.1171,39.9153],[-74.1182,39.9154],[-74.1194,39.915],[-74.1189,39.9142],[-74.1191,39.9131],[-74.1207,39.9119],[-74.1225,39.9139],[-74.1244,39.9131],[-74.1254,39.9138],[-74.1228,39.9145],[-74.1229,39.9148],[-74.1257,39.9141],[-74.1269,39.9145],[-74.1233,39.9154],[-74.1233,39.9157],[-74.1291,39.9143],[-74.1261,39.9137],[-74.1247,39.9125],[-74.1253,39.9112],[-74.1261,39.9104],[-74.128,39.9099],[-74.1301,39.9105],[-74.1289,39.913],[-74.1267,39.9127],[-74.1267,39.9131],[-74.1297,39.9132],[-74.1291,39.9131],[-74.1304,39.9103],[-74.1328,39.9104],[-74.132,39.9126],[-74.1312,39.9133],[-74.1322,39.9127],[-74.1331,39.9105],[-74.1336,39.9106],[-74.1338,39.9102],[-74.1305,39.9101],[-74.1307,39.9078],[-74.1304,39.9078],[-74.1301,39.9101],[-74.1293,39.9101],[-74.129,39.9086],[-74.1282,39.9083],[-74.127,39.9086],[-74.1279,39.9094],[-74.127,39.9099],[-74.1248,39.9107],[-74.1244,39.9099],[-74.1247,39.909],[-74.1256,39.9081],[-74.1259,39.907],[-74.1274,39.9057],[-74.1292,39.9048],[-74.1298,39.9036],[-74.131,39.9031],[-74.1315,39.9028],[-74.1319,39.9022],[-74.1314,39.9017],[-74.1317,39.9006],[-74.1335,39.8999],[-74.1352,39.8998],[-74.136,39.9],[-74.1364,39.8996],[-74.1363,39.8994],[-74.1357,39.8998],[-74.1338,39.8994],[-74.1317,39.8995],[-74.1317,39.8985],[-74.1346,39.8982],[-74.1351,39.8971],[-74.1349,39.8963],[-74.133,39.8955],[-74.1338,39.8932],[-74.1347,39.895],[-74.1356,39.8945],[-74.1359,39.8938],[-74.1346,39.8935],[-74.1353,39.8926],[-74.1363,39.8932],[-74.1375,39.8922],[-74.1367,39.8902],[-74.1381,39.8872],[-74.1414,39.8881],[-74.1416,39.8879],[-74.1372,39.8868],[-74.1359,39.8868],[-74.1361,39.8858],[-74.1387,39.8862],[-74.1403,39.8869],[-74.1407,39.8861],[-74.1395,39.8846],[-74.1397,39.884],[-74.1416,39.8835],[-74.1414,39.8827],[-74.14,39.8829],[-74.1389,39.8816],[-74.1396,39.8812],[-74.1395,39.8807],[-74.1374,39.8797],[-74.1369,39.879],[-74.1389,39.8784],[-74.1396,39.8763],[-74.1391,39.8751],[-74.1364,39.8751],[-74.1354,39.874],[-74.1347,39.8735],[-74.1323,39.8739],[-74.1327,39.8747],[-74.1321,39.8751],[-74.1308,39.8735],[-74.131,39.8727],[-74.1314,39.8665],[-74.1314,39.8653],[-74.1308,39.8647],[-74.1308,39.8629],[-74.1338,39.8626],[-74.1344,39.8614],[-74.1341,39.8611],[-74.1338,39.861],[-74.1327,39.8609],[-74.1315,39.8597],[-74.1307,39.8597],[-74.1297,39.8609],[-74.1288,39.86],[-74.1299,39.8589],[-74.1298,39.8582],[-74.1311,39.8559],[-74.1325,39.8554],[-74.1339,39.8559],[-74.1344,39.8568],[-74.1351,39.857],[-74.1354,39.8565],[-74.137,39.8562],[-74.1376,39.8553],[-74.1395,39.8556],[-74.1393,39.8551],[-74.1384,39.8541],[-74.1369,39.8546],[-74.1374,39.8533],[-74.1387,39.853],[-74.1408,39.8514],[-74.1409,39.8494],[-74.1428,39.8484],[-74.1425,39.8471],[-74.1443,39.8438],[-74.1461,39.8425],[-74.146,39.8421],[-74.1458,39.8416],[-74.1459,39.8412],[-74.1459,39.8409],[-74.1452,39.8407],[-74.1435,39.8407],[-74.1435,39.84],[-74.1445,39.8388],[-74.1477,39.8364],[-74.1481,39.8358],[-74.1528,39.8346],[-74.1538,39.8329],[-74.1548,39.8319],[-74.1554,39.832],[-74.1578,39.8315],[-74.1582,39.8307],[-74.1593,39.8298],[-74.1608,39.8281],[-74.1611,39.8274],[-74.1606,39.8232],[-74.16,39.823],[-74.1612,39.821],[-74.1617,39.8186],[-74.1634,39.8169],[-74.1642,39.8166],[-74.1652,39.8149],[-74.1659,39.8143],[-74.1674,39.8137],[-74.1702,39.8114],[-74.1719,39.8113],[-74.1749,39.8103],[-74.1778,39.8097],[-74.181,39.8098],[-74.1823,39.8103],[-74.1843,39.8107],[-74.185,39.8111],[-74.1865,39.8114],[-74.1872,39.8108],[-74.1888,39.8109],[-74.1905,39.8102],[-74.1925,39.8108],[-74.1971,39.8117],[-74.1997,39.8113],[-74.1996,39.8109],[-74.1968,39.8113],[-74.1946,39.8109],[-74.1941,39.8102],[-74.194,39.8101],[-74.1935,39.8104],[-74.1921,39.8097],[-74.1905,39.8093],[-74.188,39.8096],[-74.1859,39.8085],[-74.1841,39.8088],[-74.1826,39.8083],[-74.1809,39.8082],[-74.1812,39.8092],[-74.1798,39.8092],[-74.1795,39.8092],[-74.1787,39.8092],[-74.1784,39.8091],[-74.1776,39.8091],[-74.1773,39.8092],[-74.1766,39.8094],[-74.1762,39.8094],[-74.1751,39.8094],[-74.1739,39.8101],[-74.172,39.8104],[-74.1714,39.8109],[-74.1703,39.8103],[-74.1696,39.8084],[-74.1707,39.8074],[-74.1716,39.8057],[-74.1736,39.804],[-74.1765,39.8021],[-74.1768,39.8014],[-74.1771,39.8012],[-74.1777,39.801],[-74.1796,39.7994],[-74.1798,39.7987],[-74.1801,39.7985],[-74.1811,39.7974],[-74.1809,39.7942],[-74.1812,39.7941],[-74.1818,39.794],[-74.1826,39.7927],[-74.1823,39.7903],[-74.1825,39.7892],[-74.1832,39.7876],[-74.1833,39.7873],[-74.1837,39.7869],[-74.1847,39.7839],[-74.1854,39.7832],[-74.1856,39.7816],[-74.1861,39.7815],[-74.1869,39.78],[-74.1872,39.7782],[-74.1855,39.7742],[-74.1857,39.7739],[-74.1861,39.7729],[-74.1871,39.7714],[-74.1885,39.77],[-74.1896,39.7694],[-74.1912,39.7673],[-74.1913,39.7668],[-74.1929,39.7645],[-74.1931,39.7642],[-74.1927,39.7615],[-74.1918,39.7603],[-74.1911,39.7582],[-74.1912,39.7574],[-74.1905,39.7536],[-74.1909,39.7531],[-74.1899,39.7511],[-74.1915,39.7506],[-74.1922,39.7501],[-74.1934,39.748],[-74.1935,39.7478],[-74.1938,39.7475],[-74.1938,39.7474],[-74.19,39.7466],[-74.1889,39.7467],[-74.1886,39.7459],[-74.187,39.7453],[-74.1863,39.7437],[-74.1848,39.7428],[-74.1841,39.7419],[-74.1821,39.7412],[-74.1809,39.7414],[-74.1782,39.7407],[-74.175,39.74],[-74.1737,39.7401],[-74.1693,39.7389],[-74.1677,39.7389],[-74.166,39.7384],[-74.1643,39.7377],[-74.1636,39.7369],[-74.1643,39.7355],[-74.1663,39.7356],[-74.1679,39.7365],[-74.1684,39.7351],[-74.1707,39.7347],[-74.1722,39.7348],[-74.1732,39.7357],[-74.1742,39.7355],[-74.1758,39.7348],[-74.1751,39.7341],[-74.1734,39.7351],[-74.1728,39.7344],[-74.1716,39.734],[-74.1689,39.734],[-74.1684,39.7331],[-74.1683,39.7316],[-74.1697,39.7302],[-74.168,39.7288],[-74.1663,39.7285],[-74.1673,39.7279],[-74.1687,39.7279],[-74.17,39.7272],[-74.1699,39.727]],[[-74.0842,39.9417],[-74.0851,39.9419],[-74.0854,39.9404],[-74.0876,39.9401],[-74.0921,39.9429],[-74.0929,39.9436],[-74.0974,39.9447],[-74.0966,39.9449],[-74.0937,39.9442],[-74.0915,39.9442],[-74.0906,39.9454],[-74.0891,39.9451],[-74.0875,39.9444],[-74.0851,39.9419],[-74.0842,39.9417]],[[-74.1713,39.689],[-74.1701,39.6898],[-74.169,39.6897],[-74.1695,39.6887],[-74.1713,39.689]],[[-74.1702,39.6974],[-74.1695,39.6983],[-74.169,39.6969],[-74.1675,39.6967],[-74.1677,39.6952],[-74.1693,39.6954],[-74.1697,39.6968],[-74.1702,39.6974]],[[-74.1692,39.7059],[-74.1691,39.7063],[-74.1676,39.7077],[-74.1666,39.7068],[-74.1656,39.7067],[-74.1647,39.7071],[-74.1627,39.7075],[-74.1619,39.7069],[-74.1609,39.7067],[-74.16,39.7059],[-74.1606,39.705],[-74.1603,39.7037],[-74.1609,39.7033],[-74.1623,39.7033],[-74.1621,39.704],[-74.1626,39.7049],[-74.1636,39.7051],[-74.1646,39.7047],[-74.1651,39.704],[-74.1662,39.7043],[-74.1688,39.7042],[-74.1692,39.7059]],[[-74.1683,39.6853],[-74.1678,39.6864],[-74.1656,39.6856],[-74.1664,39.6851],[-74.1683,39.6853]],[[-74.1666,39.6961],[-74.1663,39.6969],[-74.1649,39.6977],[-74.1645,39.697],[-74.1631,39.6961],[-74.164,39.6952],[-74.1655,39.6954],[-74.1666,39.6961]],[[-74.1545,39.7071],[-74.1534,39.709],[-74.1521,39.7092],[-74.1499,39.7103],[-74.148,39.71],[-74.147,39.7108],[-74.1461,39.7105],[-74.1465,39.7074],[-74.1473,39.7067],[-74.1495,39.7058],[-74.1495,39.7066],[-74.1508,39.707],[-74.1519,39.7061],[-74.1533,39.7062],[-74.1545,39.7071]],[[-74.145,39.7625],[-74.1428,39.7629],[-74.1414,39.7623],[-74.1397,39.7628],[-74.1382,39.7637],[-74.1378,39.763],[-74.1386,39.7614],[-74.1398,39.7606],[-74.1413,39.76],[-74.1432,39.76],[-74.1444,39.7607],[-74.145,39.7625]],[[-74.1444,39.7634],[-74.1435,39.7649],[-74.1427,39.7651],[-74.1428,39.7664],[-74.1421,39.7668],[-74.1396,39.7666],[-74.1376,39.767],[-74.1334,39.7658],[-74.1332,39.7645],[-74.134,39.7637],[-74.1355,39.7632],[-74.1373,39.763],[-74.1384,39.7639],[-74.1416,39.7626],[-74.1428,39.7632],[-74.1444,39.7634]],[[-74.1436,39.7459],[-74.1434,39.7466],[-74.1395,39.7481],[-74.1388,39.7479],[-74.1368,39.7482],[-74.1357,39.7486],[-74.135,39.7495],[-74.1336,39.7483],[-74.1329,39.7468],[-74.1331,39.7458],[-74.1343,39.7453],[-74.135,39.7457],[-74.1364,39.7451],[-74.1378,39.7439],[-74.1397,39.7437],[-74.1402,39.7445],[-74.1418,39.7454],[-74.1436,39.7459]],[[-74.1426,39.7509],[-74.1428,39.752],[-74.1423,39.7523],[-74.1414,39.751],[-74.1426,39.7509]],[[-74.1417,39.7522],[-74.1416,39.7528],[-74.14,39.7542],[-74.1371,39.7554],[-74.1366,39.7547],[-74.1366,39.7516],[-74.1374,39.7511],[-74.1396,39.7516],[-74.1413,39.7511],[-74.1417,39.7522]],[[-74.1402,39.7595],[-74.1382,39.7613],[-74.1376,39.7624],[-74.1348,39.7628],[-74.1331,39.7629],[-74.1336,39.7618],[-74.1363,39.7605],[-74.14,39.7594],[-74.1402,39.7595]],[[-74.1369,39.7694],[-74.1355,39.7699],[-74.1363,39.7713],[-74.135,39.7718],[-74.1339,39.772],[-74.1329,39.7715],[-74.1324,39.7678],[-74.1326,39.7674],[-74.1342,39.7673],[-74.1354,39.7678],[-74.1369,39.7694]],[[-74.1361,39.7517],[-74.1361,39.7542],[-74.1355,39.7557],[-74.1348,39.7565],[-74.1328,39.7578],[-74.1315,39.7591],[-74.1302,39.758],[-74.129,39.7584],[-74.128,39.7581],[-74.1282,39.755],[-74.128,39.7537],[-74.1295,39.7523],[-74.1309,39.7521],[-74.1327,39.7523],[-74.1352,39.7511],[-74.1361,39.7517]],[[-74.1303,39.743],[-74.1301,39.7439],[-74.1291,39.7439],[-74.1286,39.7451],[-74.1275,39.7451],[-74.1271,39.7437],[-74.1263,39.7429],[-74.1256,39.7417],[-74.1261,39.7413],[-74.1279,39.7419],[-74.1303,39.7424],[-74.1303,39.743]],[[-74.1256,39.7429],[-74.1256,39.7437],[-74.1237,39.7447],[-74.123,39.7455],[-74.122,39.7456],[-74.1206,39.7451],[-74.1209,39.7445],[-74.1226,39.7436],[-74.1256,39.7429]],[[-74.1148,39.7579],[-74.1146,39.7588],[-74.1131,39.7597],[-74.1118,39.7599],[-74.1112,39.7594],[-74.112,39.7578],[-74.1128,39.758],[-74.1143,39.7573],[-74.1148,39.7579]],[[-74.106,39.7972],[-74.1034,39.7969],[-74.1032,39.7963],[-74.1042,39.7954],[-74.1048,39.7953],[-74.1058,39.7964],[-74.106,39.7972]],[[-74.1009,40.0135],[-74.0998,40.0134],[-74.0984,40.0139],[-74.0979,40.0147],[-74.0966,40.014],[-74.0981,40.0138],[-74.0983,40.013],[-74.1009,40.0135]],[[-74.0889,39.9499],[-74.0878,39.9516],[-74.0861,39.9508],[-74.0852,39.9511],[-74.0836,39.9511],[-74.0822,39.9488],[-74.082,39.9476],[-74.0823,39.9461],[-74.083,39.9451],[-74.0842,39.9445],[-74.0858,39.9444],[-74.0866,39.9455],[-74.0865,39.9472],[-74.0881,39.9475],[-74.0889,39.9499]],[[-74.0885,39.9573],[-74.088,39.9577],[-74.0852,39.958],[-74.0843,39.9559],[-74.0856,39.9555],[-74.0868,39.9562],[-74.0879,39.9562],[-74.0885,39.9573]],[[-74.0869,39.9526],[-74.0861,39.9538],[-74.0848,39.9532],[-74.0852,39.9521],[-74.0865,39.9518],[-74.0869,39.9526]],[[-74.0854,39.9922],[-74.0834,39.9925],[-74.0828,39.9937],[-74.0831,39.9942],[-74.0831,39.9955],[-74.0836,39.9959],[-74.0832,39.9969],[-74.0817,39.9951],[-74.0816,39.994],[-74.0805,39.9937],[-74.0793,39.9929],[-74.0771,39.9924],[-74.0777,39.9919],[-74.0794,39.9918],[-74.0807,39.9924],[-74.0824,39.9914],[-74.0844,39.9914],[-74.0854,39.9922]],[[-74.0822,40.0001],[-74.0791,40.0005],[-74.0787,40.0002],[-74.0797,39.9989],[-74.0787,39.9985],[-74.0786,39.9996],[-74.078,39.9999],[-74.0766,39.9986],[-74.0775,39.9979],[-74.077,39.9975],[-74.0777,39.9959],[-74.0768,39.9958],[-74.0764,39.9972],[-74.077,39.9978],[-74.0762,39.9989],[-74.0768,39.9998],[-74.0748,39.9996],[-74.0741,39.9974],[-74.0731,39.9965],[-74.0734,39.9956],[-74.0745,39.995],[-74.0753,39.9938],[-74.0767,39.9934],[-74.0773,39.9943],[-74.0765,39.995],[-74.0782,39.9953],[-74.0787,39.9957],[-74.0792,39.998],[-74.0798,39.9984],[-74.0815,39.9986],[-74.0809,39.9997],[-74.0822,40.0001]],[[-74.0795,39.9808],[-74.0794,39.9812],[-74.0771,39.9821],[-74.0758,39.9835],[-74.0746,39.983],[-74.0752,39.9822],[-74.0773,39.9814],[-74.0779,39.9815],[-74.0789,39.9801],[-74.0795,39.9808]],[[-74.0739,39.9939],[-74.0726,39.9955],[-74.0723,39.9964],[-74.073,39.9974],[-74.073,39.9985],[-74.0725,39.9997],[-74.0713,39.9999],[-74.0697,39.9987],[-74.0675,39.9986],[-74.0685,39.9965],[-74.0687,39.9949],[-74.0697,39.9951],[-74.0691,39.9937],[-74.0707,39.9925],[-74.0724,39.9933],[-74.0735,39.9933],[-74.0739,39.9939]]]},"properties":null}
]}