{"type":"FeatureCollection", "features": [
{"type":"Feature","geometry":{"type":"Polygon","coordinates":[[[-74.9787,39.2771],[-74.9803,39.2732],[-74.9817,39.2711],[-74.9828,39.2704],[-74.9845,39.2702],[-74.9871,39.2708],[-74.9893,39.272],[-74.992,39.2722],[-74.9942,39.2704],[-74.9965,39.2681],[-74.9997,39.2667],[-75.0013,39.2655],[-75.0018,39.2646],[-75.0018,39.2629],[-75.0002,39.2617],[-74.9948,39.2609],[-74.9931,39.2606],[-74.9919,39.2599],[-74.9918,39.2581],[-74.9942,39.2552],[-74.9964,39.254],[-75.003,39.2534],[-75.0041,39.2527],[-75.005,39.2515],[-75.0043,39.2504],[-75.0042,39.248],[-75.005,39.2461],[-75.0064,39.2456],[-75.0094,39.2458],[-75.0129,39.2471],[-75.0155,39.247],[-75.0167,39.2463],[-75.0178,39.2447],[-75.018,39.2432],[-75.0175,39.2421],[-75.0156,39.2408],[-75.0123,39.2394],[-75.011,39.2377],[-75.0109,39.2362],[-75.0118,39.2347],[-75.0136,39.2335],[-75.0147,39.2332],[-75.0176,39.2334],[-75.0212,39.2357],[-75.024,39.2366],[-75.0263,39.2358],[-75.0308,39.2328],[-75.0331,39.2309],[-75.0351,39.2283],[-75.035,39.2265],[-75.0343,39.2252],[-75.03,39.223],[-75.0263,39.2206],[-75.0259,39.2192],[-75.0267,39.2175],[-75.0311,39.2132],[-75.0257,39.2127],[-75.025,39.2124],[-75.0239,39.2108],[-75.0238,39.2095],[-75.0242,39.208],[-75.0237,39.2058],[-75.0228,39.2042],[-75.0234,39.202],[-75.0265,39.2006],[-75.0273,39.1995],[-75.0281,39.1949],[-75.0268,39.1946],[-75.0256,39.1936],[-75.0238,39.1938],[-75.019,39.1934],[-75.0181,39.1939],[-75.0159,39.1941],[-75.014,39.1935],[-75.0112,39.1935],[-75.0083,39.1929],[-75.004,39.191],[-75.0002,39.1914],[-74.9964,39.1924],[-74.9934,39.1922],[-74.991,39.1927],[-74.9878,39.1922],[-74.9866,39.1927],[-74.98,39.1923],[-74.9788,39.1923],[-74.9748,39.1936],[-74.9734,39.1938],[-74.971,39.1923],[-74.9688,39.1922],[-74.967,39.1926],[-74.9646,39.1924],[-74.9643,39.1919],[-74.9601,39.1915],[-74.957,39.1909],[-74.9542,39.19],[-74.9495,39.1878],[-74.9464,39.1868],[-74.9456,39.1863],[-74.9404,39.1852],[-74.9344,39.1863],[-74.9303,39.1864],[-74.929,39.1863],[-74.9263,39.1868],[-74.9259,39.1852],[-74.9267,39.1826],[-74.9257,39.1806],[-74.9231,39.1793],[-74.9199,39.1781],[-74.9189,39.177],[-74.9177,39.1766],[-74.9163,39.1769],[-74.9151,39.1781],[-74.9132,39.1788],[-74.9105,39.1779],[-74.91,39.1782],[-74.9073,39.1772],[-74.9065,39.1779],[-74.9053,39.1767],[-74.902,39.1751],[-74.8988,39.1727],[-74.8978,39.171],[-74.8964,39.1702],[-74.8945,39.1677],[-74.8942,39.1668],[-74.8902,39.1612],[-74.8876,39.1605],[-74.8871,39.16],[-74.8859,39.1571],[-74.886,39.155],[-74.8857,39.1547],[-74.8856,39.1515],[-74.8858,39.15],[-74.8852,39.1479],[-74.8856,39.147],[-74.8853,39.1449],[-74.8856,39.1436],[-74.8867,39.1414],[-74.8882,39.1391],[-74.8886,39.137],[-74.8883,39.1352],[-74.8888,39.1344],[-74.8892,39.1309],[-74.8888,39.1299],[-74.8889,39.1283],[-74.8896,39.1275],[-74.8867,39.1275],[-74.8833,39.1258],[-74.8818,39.1253],[-74.8799,39.1262],[-74.8787,39.1256],[-74.8784,39.1239],[-74.8748,39.1225],[-74.8674,39.1176],[-74.8643,39.1186],[-74.8628,39.12],[-74.8619,39.1215],[-74.8552,39.1315],[-74.8547,39.133],[-74.8533,39.1409],[-74.8514,39.1405],[-74.8492,39.1387],[-74.847,39.1372],[-74.8459,39.1361],[-74.8436,39.135],[-74.8417,39.1335],[-74.8398,39.133],[-74.8362,39.1332],[-74.8349,39.1321],[-74.8322,39.1315],[-74.8306,39.1306],[-74.8279,39.13],[-74.8248,39.1281],[-74.822,39.1278],[-74.8189,39.1272],[-74.8155,39.1262],[-74.8137,39.1261],[-74.8078,39.1251],[-74.8066,39.1237],[-74.8046,39.1225],[-74.803,39.1212],[-74.8008,39.1199],[-74.7992,39.1182],[-74.7985,39.1166],[-74.7975,39.1158],[-74.7953,39.1153],[-74.7917,39.1214],[-74.7894,39.1235],[-74.78,39.1208],[-74.7775,39.1202],[-74.7736,39.1232],[-74.7713,39.1255],[-74.7702,39.1249],[-74.7691,39.1269],[-74.7695,39.1281],[-74.7669,39.1322],[-74.7635,39.1363],[-74.7615,39.139],[-74.7599,39.1409],[-74.7588,39.1432],[-74.757,39.1453],[-74.755,39.1473],[-74.7521,39.1495],[-74.748,39.1521],[-74.7446,39.155],[-74.7421,39.1579],[-74.7413,39.1584],[-74.7402,39.1603],[-74.7377,39.1633],[-74.7359,39.1651],[-74.7332,39.1666],[-74.7331,39.1675],[-74.7295,39.1709],[-74.7285,39.171],[-74.7279,39.173],[-74.7183,39.1849],[-74.7155,39.1879],[-74.7134,39.1894],[-74.7077,39.1941],[-74.6991,39.2019],[-74.6959,39.2059],[-74.6917,39.2103],[-74.6878,39.2139],[-74.683,39.2173],[-74.6787,39.2213],[-74.6764,39.2242],[-74.6722,39.2304],[-74.669,39.2336],[-74.6641,39.2375],[-74.662,39.2396],[-74.6589,39.2437],[-74.6553,39.2478],[-74.6541,39.2485],[-74.6522,39.2503],[-74.652,39.2509],[-74.6501,39.2527],[-74.6495,39.2527],[-74.6468,39.255],[-74.6469,39.2555],[-74.645,39.2568],[-74.6425,39.2601],[-74.6411,39.2607],[-74.6413,39.2619],[-74.6404,39.2647],[-74.6383,39.267],[-74.6365,39.2686],[-74.6323,39.2716],[-74.6287,39.274],[-74.629,39.2746],[-74.6266,39.2778],[-74.626,39.2799],[-74.6254,39.2831],[-74.6243,39.2868],[-74.6245,39.288],[-74.6203,39.2975],[-74.6186,39.3016],[-74.6181,39.3032],[-74.6177,39.3059],[-74.6183,39.309],[-74.6203,39.3141],[-74.6234,39.3148],[-74.6295,39.3154],[-74.6313,39.3158],[-74.6355,39.3181],[-74.6373,39.32],[-74.6431,39.3351],[-74.6497,39.3424],[-74.6519,39.344],[-74.6546,39.345],[-74.6638,39.3497],[-74.6678,39.3501],[-74.672,39.3489],[-74.6745,39.3486],[-74.6764,39.3491],[-74.6782,39.3504],[-74.6833,39.3552],[-74.6843,39.3559],[-74.6874,39.3571],[-74.6883,39.3577],[-74.6923,39.3613],[-74.6967,39.3614],[-74.6985,39.362],[-74.7044,39.3674],[-74.7088,39.37],[-74.7108,39.3722],[-74.7129,39.3766],[-74.7132,39.3793],[-74.7148,39.3815],[-74.7154,39.3829],[-74.7168,39.3911],[-74.7165,39.3957],[-74.7167,39.3986],[-74.7164,39.3997],[-74.7147,39.4026],[-74.7134,39.4102],[-74.7129,39.4113],[-74.7023,39.4245],[-74.7016,39.4255],[-74.7018,39.4271],[-74.7109,39.4387],[-74.7167,39.4458],[-74.7198,39.4495],[-74.7273,39.452],[-74.7263,39.4544],[-74.7173,39.4711],[-74.7166,39.4719],[-74.7148,39.4731],[-74.7114,39.476],[-74.6821,39.5022],[-74.6806,39.5034],[-74.6734,39.5098],[-74.6704,39.5127],[-74.6676,39.5139],[-74.6654,39.5145],[-74.6625,39.516],[-74.6368,39.5381],[-74.6024,39.5141],[-74.5506,39.4781],[-74.5495,39.4778],[-74.5263,39.4742],[-74.5253,39.477],[-74.5243,39.4793],[-74.5214,39.4832],[-74.5191,39.4859],[-74.5187,39.4869],[-74.516,39.4917],[-74.5156,39.495],[-74.5169,39.5006],[-74.5173,39.5015],[-74.5185,39.506],[-74.5161,39.5074],[-74.5185,39.5097],[-74.5181,39.5145],[-74.5173,39.5164],[-74.5157,39.519],[-74.5138,39.5208],[-74.509,39.5234],[-74.5046,39.5256],[-74.5012,39.5278],[-74.4901,39.536],[-74.4873,39.5376],[-74.4829,39.5392],[-74.4792,39.5402],[-74.4741,39.5411],[-74.471,39.5425],[-74.4679,39.545],[-74.4666,39.5468],[-74.4652,39.5466],[-74.463,39.5457],[-74.4628,39.5443],[-74.4649,39.5407],[-74.4656,39.5365],[-74.4651,39.5342],[-74.4624,39.5303],[-74.4617,39.529],[-74.4605,39.5254],[-74.4574,39.5072],[-74.4569,39.5016],[-74.457,39.5004],[-74.4609,39.4712],[-74.4628,39.4673],[-74.4643,39.458],[-74.4649,39.4563],[-74.4663,39.4548],[-74.4763,39.445],[-74.4774,39.4435],[-74.4788,39.4404],[-74.4799,39.4393],[-74.4845,39.4362],[-74.4792,39.4349],[-74.4601,39.4241],[-74.4612,39.4143],[-74.4571,39.4165],[-74.4544,39.4161],[-74.4516,39.4147],[-74.45,39.4149],[-74.4482,39.4166],[-74.4473,39.417],[-74.4424,39.4176],[-74.4406,39.4175],[-74.4389,39.4161],[-74.4379,39.4119],[-74.4364,39.4091],[-74.4342,39.407],[-74.4328,39.4061],[-74.43,39.4048],[-74.4246,39.4029],[-74.4182,39.4013],[-74.4163,39.4004],[-74.4146,39.3985],[-74.4139,39.3971],[-74.415,39.3931],[-74.4135,39.3903],[-74.4108,39.3917],[-74.409,39.3922],[-74.4049,39.394],[-74.4017,39.3949],[-74.3899,39.3953],[-74.3895,39.3954],[-74.3843,39.3998],[-74.3832,39.4011],[-74.3799,39.4022],[-74.3778,39.4036],[-74.3759,39.4035],[-74.3744,39.4048],[-74.3739,39.407],[-74.3731,39.4079],[-74.3709,39.4084],[-74.3695,39.4091],[-74.3694,39.41],[-74.3707,39.4101],[-74.3734,39.4089],[-74.3745,39.4091],[-74.3766,39.4126],[-74.3787,39.413],[-74.3818,39.4142],[-74.3831,39.4157],[-74.3833,39.4181],[-74.381,39.4191],[-74.3777,39.4193],[-74.3759,39.4198],[-74.373,39.4211],[-74.37,39.4221],[-74.3664,39.4237],[-74.365,39.4234],[-74.3644,39.4209],[-74.3624,39.42],[-74.3617,39.4185],[-74.3585,39.4157],[-74.3571,39.4156],[-74.356,39.4166],[-74.3534,39.4146],[-74.3519,39.4162],[-74.3493,39.4184],[-74.347,39.4207],[-74.3445,39.4237],[-74.3427,39.4252],[-74.3381,39.4296],[-74.337,39.431],[-74.3347,39.4332],[-74.3343,39.434],[-74.3318,39.4363],[-74.3314,39.437],[-74.3284,39.4399],[-74.3273,39.4415],[-74.3267,39.4448],[-74.3267,39.446],[-74.3242,39.4506],[-74.3237,39.4521],[-74.3196,39.4538],[-74.3163,39.4603],[-74.3139,39.4664],[-74.3134,39.4692],[-74.3065,39.4777],[-74.3076,39.4798],[-74.3097,39.4855],[-74.3113,39.4913],[-74.313,39.4954],[-74.3144,39.4976],[-74.3167,39.5006],[-74.3195,39.5032],[-74.322,39.5048],[-74.3219,39.5057],[-74.3195,39.5051],[-74.3119,39.5039],[-74.3063,39.5025],[-74.3043,39.5022],[-74.3024,39.5025],[-74.301,39.5032],[-74.298,39.5056],[-74.2962,39.5076],[-74.2938,39.5115],[-74.2935,39.5127],[-74.2934,39.5155],[-74.2937,39.5194],[-74.2933,39.5213],[-74.292,39.5237],[-74.2893,39.526],[-74.2859,39.5276],[-74.2816,39.5289],[-74.2785,39.5306],[-74.2749,39.5328],[-74.2721,39.5348],[-74.2708,39.5359],[-74.2681,39.5393],[-74.2655,39.544],[-74.2638,39.5475],[-74.2615,39.5518],[-74.2594,39.5547],[-74.2573,39.558],[-74.2553,39.5624],[-74.2539,39.5662],[-74.2541,39.5682],[-74.2554,39.5707],[-74.2568,39.5721],[-74.2586,39.5733],[-74.262,39.5749],[-74.2639,39.5761],[-74.2657,39.5778],[-74.2666,39.5794],[-74.2671,39.5819],[-74.2669,39.5843],[-74.266,39.5883],[-74.2647,39.5909],[-74.2632,39.5927],[-74.2595,39.5957],[-74.2576,39.5974],[-74.2562,39.6005],[-74.2556,39.6033],[-74.2557,39.6065],[-74.2568,39.6112],[-74.2569,39.6122],[-74.2559,39.6151],[-74.2538,39.6173],[-74.2494,39.6211],[-74.2472,39.6236],[-74.2464,39.6251],[-74.247,39.6285],[-74.2465,39.6315],[-74.2452,39.6347],[-74.243,39.6386],[-74.2417,39.6403],[-74.2393,39.6423],[-74.2365,39.6437],[-74.2342,39.6437],[-74.2292,39.6417],[-74.2251,39.6409],[-74.2227,39.6407],[-74.2144,39.6406],[-74.2115,39.6409],[-74.2086,39.642],[-74.207,39.6431],[-74.206,39.6427],[-74.2053,39.6414],[-74.2038,39.6404],[-74.2023,39.6407],[-74.1991,39.6423],[-74.1965,39.643],[-74.1906,39.6446],[-74.1882,39.6459],[-74.1874,39.6466],[-74.1867,39.6485],[-74.1867,39.6512],[-74.1865,39.6527],[-74.1854,39.6544],[-74.1839,39.6554],[-74.1806,39.6567],[-74.1798,39.6572],[-74.1797,39.6589],[-74.1823,39.6622],[-74.1824,39.6641],[-74.1815,39.6659],[-74.1791,39.6688],[-74.1717,39.6765],[-74.1636,39.6853],[-74.1628,39.6876],[-74.1618,39.689],[-74.1589,39.6908],[-74.1536,39.6931],[-74.1522,39.6945],[-74.1512,39.6965],[-74.1507,39.6985],[-74.1492,39.7014],[-74.148,39.7029],[-74.1447,39.7063],[-74.1429,39.7108],[-74.1416,39.7166],[-74.1413,39.7192],[-74.1418,39.7214],[-74.143,39.7229],[-74.1466,39.7258],[-74.1482,39.7277],[-74.1494,39.7302],[-74.1497,39.7316],[-74.1494,39.7343],[-74.1482,39.7372],[-74.1477,39.7397],[-74.1479,39.7422],[-74.1487,39.7441],[-74.1517,39.7487],[-74.1534,39.7519],[-74.1555,39.7547],[-74.1578,39.7563],[-74.16,39.7575],[-74.1707,39.7628],[-74.171,39.7631],[-74.1714,39.7706],[-74.1717,39.7724],[-74.1713,39.7732],[-74.1658,39.7739],[-74.1601,39.7741],[-74.1557,39.774],[-74.1514,39.7736],[-74.1474,39.774],[-74.1436,39.775],[-74.1408,39.7753],[-74.1375,39.7749],[-74.1332,39.7754],[-74.1314,39.7742],[-74.1305,39.7707],[-74.1302,39.7673],[-74.1288,39.7643],[-74.1269,39.7623],[-74.1243,39.7607],[-74.1223,39.7599],[-74.1193,39.7593],[-74.1158,39.7592],[-74.108,39.7645],[-74.1074,39.7625],[-74.1049,39.7626],[-74.1007,39.7636],[-74.0964,39.7644],[-74.0959,39.7663],[-74.0956,39.7701],[-74.0951,39.7724],[-74.0944,39.7789],[-74.0935,39.7832],[-74.0935,39.7845],[-74.0928,39.7888],[-74.0924,39.7938],[-74.0915,39.7991],[-74.0901,39.8059],[-74.0897,39.8087],[-74.0894,39.8146],[-74.0887,39.822],[-74.0867,39.8397],[-74.0863,39.8422],[-74.085,39.852],[-74.0844,39.855],[-74.0839,39.861],[-74.0835,39.8631],[-74.0835,39.8648],[-74.0828,39.8686],[-74.0822,39.8754],[-74.0819,39.8762],[-74.0816,39.8804],[-74.0814,39.8811],[-74.0807,39.887],[-74.0801,39.8907],[-74.0785,39.9014],[-74.0779,39.9049],[-74.0874,39.9059],[-74.1217,39.892],[-74.1361,39.8862],[-74.1362,39.8863],[-74.1474,39.8892],[-74.1488,39.8893],[-74.161,39.8921],[-74.1708,39.891],[-74.1739,39.8909],[-74.1752,39.8914],[-74.1759,39.8924],[-74.1913,39.891],[-74.1947,39.8908],[-74.1964,39.8913],[-74.1981,39.8931],[-74.1998,39.8935],[-74.2108,39.8925],[-74.2113,39.8953],[-74.2109,39.9014],[-74.2112,39.9034],[-74.2108,39.9056],[-74.2115,39.9074],[-74.211,39.9099],[-74.2111,39.9115],[-74.2099,39.9169],[-74.2097,39.9183],[-74.209,39.9198],[-74.2091,39.9208],[-74.2078,39.9268],[-74.2076,39.9287],[-74.2078,39.9312],[-74.2074,39.9317],[-74.208,39.9344],[-74.2077,39.9359],[-74.2084,39.9373],[-74.2085,39.9402],[-74.2082,39.9416],[-74.2068,39.9422],[-74.2065,39.9431],[-74.207,39.9446],[-74.2077,39.9448],[-74.2069,39.9486],[-74.2071,39.9504],[-74.206,39.9552],[-74.2044,39.9557],[-74.2055,39.9569],[-74.2056,39.9621],[-74.2041,39.9633],[-74.2023,39.9636],[-74.2095,39.9647],[-74.2132,39.9651],[-74.2268,39.9673],[-74.2309,39.9686],[-74.2474,39.978],[-74.2495,39.9796],[-74.2517,39.9815],[-74.2582,39.9853],[-74.2666,39.9901],[-74.2676,39.9908],[-74.275,39.9944],[-74.2829,39.9982],[-74.2955,40.0045],[-74.2977,40.0062],[-74.3025,40.0111],[-74.3077,40.0138],[-74.3031,40.0178],[-74.2988,40.0206],[-74.2905,40.0258],[-74.2845,40.0319],[-74.2872,40.033],[-74.2927,40.0349],[-74.3003,40.0372],[-74.3116,40.0412],[-74.3138,40.0421],[-74.3155,40.0434],[-74.3173,40.0441],[-74.321,40.0444],[-74.3273,40.0471],[-74.3308,40.049],[-74.3327,40.0499],[-74.3465,40.0545],[-74.3495,40.056],[-74.3646,40.0674],[-74.3684,40.0694],[-74.3716,40.0706],[-74.3729,40.0717],[-74.378,40.0783],[-74.3825,40.0841],[-74.3829,40.0851],[-74.3854,40.0973],[-74.3867,40.1047],[-74.3881,40.1098],[-74.3894,40.1113],[-74.3954,40.1165],[-74.4047,40.1249],[-74.412,40.1312],[-74.4176,40.1296],[-74.4206,40.129],[-74.4231,40.1286],[-74.4281,40.1271],[-74.4321,40.1254],[-74.4375,40.1212],[-74.4385,40.121],[-74.4412,40.1212],[-74.4435,40.1199],[-74.4449,40.1196],[-74.4611,40.1228],[-74.4674,40.1263],[-74.4695,40.1285],[-74.4701,40.1282],[-74.4796,40.1219],[-74.4785,40.1201],[-74.4774,40.1167],[-74.4766,40.116],[-74.4743,40.1162],[-74.473,40.1123],[-74.4683,40.1138],[-74.4684,40.1142],[-74.4635,40.1145],[-74.4611,40.1045],[-74.4562,40.0885],[-74.4563,40.0883],[-74.4724,40.0845],[-74.4804,40.0835],[-74.4774,40.0813],[-74.4765,40.0802],[-74.4714,40.073],[-74.4619,40.0597],[-74.4567,40.0527],[-74.4547,40.0502],[-74.4519,40.0481],[-74.4549,40.0475],[-74.458,40.0504],[-74.4614,40.0518],[-74.4617,40.0513],[-74.4643,40.0505],[-74.4654,40.0512],[-74.4678,40.0514],[-74.4916,40.0417],[-74.4963,40.0374],[-74.5064,40.0375],[-74.5075,40.0381],[-74.5113,40.0371],[-74.5283,40.0367],[-74.5304,40.0405],[-74.5364,40.0409],[-74.538,40.0394],[-74.5541,40.0383],[-74.556,40.0366],[-74.561,40.0368],[-74.5706,40.0375],[-74.5729,40.0393],[-74.5772,40.0379],[-74.5789,40.0407],[-74.5803,40.0416],[-74.5817,40.0411],[-74.5824,40.0426],[-74.5813,40.0433],[-74.5811,40.0442],[-74.5787,40.0453],[-74.5772,40.0471],[-74.5769,40.0484],[-74.5747,40.0498],[-74.5745,40.0517],[-74.5797,40.0509],[-74.5786,40.0542],[-74.5818,40.0587],[-74.5936,40.0531],[-74.5961,40.0522],[-74.5921,40.047],[-74.5896,40.0477],[-74.5863,40.043],[-74.5873,40.0427],[-74.5947,40.0391],[-74.5967,40.039],[-74.5993,40.0384],[-74.6016,40.0393],[-74.606,40.0389],[-74.6057,40.0367],[-74.6126,40.0361],[-74.6145,40.0355],[-74.6154,40.0346],[-74.6182,40.0333],[-74.6195,40.0333],[-74.6192,40.0358],[-74.6234,40.0365],[-74.6274,40.0352],[-74.6382,40.032],[-74.6512,40.0279],[-74.6557,40.0241],[-74.657,40.017],[-74.6553,40.0142],[-74.6551,40.0133],[-74.654,40.0131],[-74.6558,40.0104],[-74.6596,40.0122],[-74.6598,40.0117],[-74.6636,40.0109],[-74.6633,40.0102],[-74.6655,40.0096],[-74.6654,40.0091],[-74.6686,40.0082],[-74.6727,39.9938],[-74.6773,39.9844],[-74.6812,39.9763],[-74.6793,39.9763],[-74.6767,39.9745],[-74.6744,39.9738],[-74.6749,39.9723],[-74.6756,39.9724],[-74.6765,39.9706],[-74.6758,39.9704],[-74.6773,39.9673],[-74.679,39.9676],[-74.6803,39.9695],[-74.6817,39.9692],[-74.6818,39.9677],[-74.6809,39.9673],[-74.6822,39.9661],[-74.6983,39.9668],[-74.6965,39.9682],[-74.7184,39.9691],[-74.7265,39.9695],[-74.7354,39.9699],[-74.7359,39.9685],[-74.738,39.9647],[-74.7444,39.952],[-74.7439,39.9447],[-74.7434,39.9401],[-74.7431,39.9333],[-74.7427,39.9307],[-74.7413,39.9164],[-74.7402,39.9036],[-74.7402,39.902],[-74.7414,39.892],[-74.7415,39.8886],[-74.7423,39.888],[-74.7477,39.8886],[-74.7496,39.8883],[-74.7533,39.8889],[-74.7535,39.8896],[-74.7604,39.8908],[-74.7677,39.8929],[-74.7682,39.8926],[-74.7846,39.8972],[-74.7885,39.8986],[-74.7897,39.8999],[-74.7917,39.9007],[-74.7953,39.9014],[-74.8026,39.9029],[-74.8034,39.9034],[-74.8061,39.904],[-74.8068,39.9039],[-74.8125,39.9051],[-74.819,39.9056],[-74.8215,39.9059],[-74.8254,39.9053],[-74.8283,39.9031],[-74.8303,39.9027],[-74.8348,39.902],[-74.8359,39.9022],[-74.8516,39.8999],[-74.8533,39.8991],[-74.8618,39.8977],[-74.8619,39.8981],[-74.8759,39.8959],[-74.8825,39.8949],[-74.8847,39.8949],[-74.9011,39.8946],[-74.9172,39.8946],[-74.9174,39.8943],[-74.9208,39.8942],[-74.9232,39.8946],[-74.9297,39.8942],[-74.9399,39.8959],[-74.9453,39.8959],[-74.9442,39.8931],[-74.9409,39.8925],[-74.9389,39.8907],[-74.9361,39.8898],[-74.9333,39.8881],[-74.932,39.8865],[-74.9307,39.8859],[-74.9278,39.8762],[-74.9272,39.8738],[-74.9242,39.8639],[-74.9101,39.8163],[-74.9083,39.8097],[-74.9057,39.8016],[-74.904,39.795],[-74.9078,39.7942],[-74.9108,39.7987],[-74.9124,39.7986],[-74.9123,39.7978],[-74.9159,39.7979],[-74.9167,39.7975],[-74.9166,39.7964],[-74.9189,39.7965],[-74.9196,39.7958],[-74.918,39.7949],[-74.9199,39.7932],[-74.9193,39.7929],[-74.9201,39.7907],[-74.9213,39.7893],[-74.922,39.7875],[-74.9228,39.7867],[-74.9158,39.7819],[-74.9155,39.7806],[-74.9176,39.7774],[-74.9173,39.7772],[-74.9276,39.7764],[-74.929,39.7764],[-74.9298,39.7774],[-74.9318,39.7775],[-74.935,39.7794],[-74.9365,39.7794],[-74.9422,39.777],[-74.944,39.7772],[-74.9456,39.7765],[-74.9467,39.7754],[-74.948,39.7737],[-74.9493,39.7701],[-74.949,39.7688],[-74.9495,39.767],[-74.9492,39.7651],[-74.9513,39.7622],[-74.9519,39.7608],[-74.9533,39.7593],[-74.954,39.7572],[-74.9547,39.7565],[-74.9546,39.7526],[-74.9524,39.7495],[-74.9526,39.7475],[-74.9538,39.7468],[-74.9533,39.7422],[-74.952,39.7396],[-74.9521,39.7374],[-74.9513,39.7345],[-74.9504,39.7331],[-74.9498,39.7294],[-74.9491,39.7272],[-74.9481,39.7259],[-74.9488,39.7241],[-74.9487,39.7223],[-74.9496,39.7212],[-74.9504,39.7182],[-74.9492,39.7162],[-74.9505,39.7147],[-74.9489,39.7127],[-74.944,39.7101],[-74.943,39.7087],[-74.9421,39.7083],[-74.9409,39.7066],[-74.9412,39.7054],[-74.9397,39.7044],[-74.9416,39.7038],[-74.9417,39.7027],[-74.9426,39.7023],[-74.9411,39.7008],[-74.9401,39.6967],[-74.9429,39.6932],[-74.9518,39.6919],[-74.9802,39.6876],[-74.9909,39.6861],[-74.9936,39.6849],[-74.9953,39.6863],[-75.0057,39.6879],[-75.0179,39.6897],[-75.0182,39.6827],[-75.0184,39.6708],[-75.019,39.6577],[-75.0191,39.6543],[-75.0189,39.6536],[-75.0124,39.6407],[-74.9984,39.6138],[-75.009,39.5984],[-75.0091,39.5979],[-75.0078,39.5784],[-75.004,39.5701],[-74.9983,39.5541],[-74.9758,39.5468],[-74.9693,39.5448],[-74.9561,39.5399],[-74.9548,39.5392],[-74.9262,39.5144],[-74.9248,39.5131],[-74.922,39.5094],[-74.9188,39.5059],[-74.8869,39.4722],[-74.8905,39.4724],[-74.8905,39.4571],[-74.8904,39.4499],[-74.892,39.4487],[-74.8945,39.448],[-74.8968,39.4483],[-74.8981,39.448],[-74.8994,39.4463],[-74.8994,39.4455],[-74.9016,39.4428],[-74.9048,39.4409],[-74.9061,39.4392],[-74.9071,39.4385],[-74.9086,39.4363],[-74.9085,39.4343],[-74.9098,39.4312],[-74.911,39.4303],[-74.9123,39.4282],[-74.9129,39.4264],[-74.9128,39.4253],[-74.9134,39.4242],[-74.913,39.4233],[-74.9082,39.4213],[-74.9091,39.4199],[-74.909,39.4186],[-74.9079,39.4159],[-74.908,39.4145],[-74.9075,39.4139],[-74.9087,39.4119],[-74.9093,39.4105],[-74.9141,39.4077],[-74.9179,39.4065],[-74.9182,39.4061],[-74.9208,39.4055],[-74.922,39.4046],[-74.9218,39.4017],[-74.9221,39.3996],[-74.9235,39.3982],[-74.9238,39.3964],[-74.9247,39.3937],[-74.9251,39.3936],[-74.9278,39.3908],[-74.9319,39.388],[-74.9333,39.3873],[-74.9356,39.3878],[-74.9371,39.387],[-74.9377,39.3861],[-74.9388,39.3859],[-74.9399,39.3849],[-74.9401,39.3837],[-74.9416,39.3821],[-74.9422,39.3807],[-74.9416,39.38],[-74.944,39.3788],[-74.9448,39.3778],[-74.9446,39.3763],[-74.9454,39.3737],[-74.9474,39.3719],[-74.9489,39.3683],[-74.9492,39.3656],[-74.9506,39.3643],[-74.9525,39.364],[-74.9532,39.3629],[-74.9547,39.3617],[-74.9551,39.3599],[-74.9579,39.3577],[-74.9581,39.3571],[-74.9599,39.3549],[-74.9604,39.3514],[-74.9611,39.3503],[-74.96,39.349],[-74.958,39.3491],[-74.9582,39.348],[-74.9592,39.3469],[-74.9604,39.3448],[-74.9617,39.3451],[-74.9627,39.3446],[-74.9633,39.3426],[-74.9624,39.3415],[-74.9624,39.3404],[-74.9654,39.3386],[-74.9666,39.3386],[-74.9678,39.338],[-74.9675,39.3364],[-74.9682,39.3344],[-74.9668,39.3335],[-74.967,39.3327],[-74.9693,39.3315],[-74.9717,39.3312],[-74.9728,39.3282],[-74.9744,39.3281],[-74.9756,39.3272],[-74.9745,39.3254],[-74.9749,39.3248],[-74.9769,39.3251],[-74.9779,39.3242],[-74.9765,39.3222],[-74.9778,39.3181],[-74.979,39.3172],[-74.9797,39.3176],[-74.98,39.3191],[-74.9817,39.3185],[-74.9811,39.3168],[-74.9828,39.3163],[-74.9829,39.3154],[-74.9844,39.3144],[-74.9841,39.3126],[-74.9866,39.3126],[-74.9883,39.3111],[-74.9887,39.3094],[-74.9897,39.3092],[-74.99,39.3111],[-74.9912,39.3117],[-74.9925,39.3112],[-74.9927,39.3101],[-74.9917,39.3082],[-74.9896,39.3075],[-74.9894,39.3063],[-74.9908,39.3045],[-74.9917,39.3027],[-74.9916,39.3015],[-74.9909,39.3004],[-74.9898,39.2999],[-74.9869,39.2998],[-74.9832,39.3007],[-74.9817,39.3002],[-74.9808,39.2994],[-74.98,39.2978],[-74.9805,39.2956],[-74.9835,39.293],[-74.9851,39.2903],[-74.9871,39.2886],[-74.9903,39.2873],[-74.9909,39.2865],[-74.9915,39.2822],[-74.9913,39.2809],[-74.9898,39.2795],[-74.9878,39.279],[-74.9858,39.2799],[-74.9835,39.282],[-74.9819,39.2826],[-74.98,39.2824],[-74.979,39.2817],[-74.9786,39.2802],[-74.9787,39.2771]]]},"properties":null}
]}