{"type":"FeatureCollection", "features": [
{"type":"Feature","geometry":{"type":"MultiPolygon","coordinates":[[[[-80,37.6],[-69.5,37.6],[-69.5,42.6],[-80,42.6],[-80,37.6]],[[-74.084,39.942],[-74.08,39.944],[-74.084,39.966],[-74.075,39.968],[-74.071,39.976],[-74.075,39.979],[-74.07,39.986],[-74.068,39.993],[-74.067,40.005],[-74.06,40.01],[-74.059,40.015],[-74.065,40.024],[-74.055,40.028],[-74.049,40.052],[-74.052,40.059],[-74.069,40.061],[-74.082,40.056],[-74.093,40.057],[-74.108,40.055],[-74.114,40.058],[-74.119,40.063],[-74.13,40.064],[-74.119,40.054],[-74.111,40.049],[-74.102,40.047],[-74.097,40.051],[-74.086,40.047],[-74.079,40.051],[-74.069,40.051],[-74.06,40.047],[-74.058,40.04],[-74.068,40.031],[-74.076,40.03],[-74.083,40.026],[-74.076,40.022],[-74.084,40.017],[-74.085,40.013],[-74.098,40.015],[-74.116,40.02],[-74.116,40.017],[-74.107,40.009],[-74.111,40.002],[-74.128,40],[-74.139,40.003],[-74.147,39.997],[-74.125,39.987],[-74.115,39.993],[-74.115,39.983],[-74.117,39.98],[-74.109,39.975],[-74.111,39.967],[-74.118,39.961],[-74.111,39.953],[-74.116,39.945],[-74.132,39.943],[-74.138,39.937],[-74.155,39.943],[-74.165,39.949],[-74.176,39.949],[-74.184,39.946],[-74.18,39.939],[-74.175,39.942],[-74.157,39.938],[-74.152,39.934],[-74.134,39.928],[-74.123,39.931],[-74.106,39.931],[-74.107,39.921],[-74.114,39.915],[-74.124,39.913],[-74.126,39.907],[-74.135,39.898],[-74.14,39.884],[-74.139,39.875],[-74.131,39.873],[-74.131,39.86],[-74.139,39.855],[-74.148,39.836],[-74.158,39.832],[-74.161,39.827],[-74.162,39.819],[-74.17,39.811],[-74.172,39.806],[-74.18,39.799],[-74.187,39.78],[-74.185,39.774],[-74.193,39.764],[-74.19,39.751],[-74.184,39.742],[-74.168,39.739],[-74.168,39.725],[-74.159,39.711],[-74.168,39.709],[-74.17,39.7],[-74.177,39.696],[-74.191,39.684],[-74.196,39.677],[-74.205,39.676],[-74.211,39.673],[-74.22,39.659],[-74.217,39.654],[-74.212,39.652],[-74.217,39.642],[-74.223,39.646],[-74.239,39.645],[-74.25,39.643],[-74.25,39.624],[-74.258,39.623],[-74.264,39.619],[-74.261,39.609],[-74.267,39.605],[-74.291,39.602],[-74.299,39.606],[-74.311,39.595],[-74.315,39.593],[-74.315,39.586],[-74.326,39.576],[-74.331,39.576],[-74.342,39.564],[-74.336,39.564],[-74.328,39.558],[-74.319,39.554],[-74.319,39.548],[-74.305,39.541],[-74.299,39.539],[-74.297,39.522],[-74.3,39.517],[-74.308,39.509],[-74.314,39.505],[-74.323,39.505],[-74.331,39.507],[-74.334,39.514],[-74.332,39.521],[-74.326,39.526],[-74.33,39.531],[-74.332,39.544],[-74.337,39.538],[-74.351,39.545],[-74.378,39.545],[-74.385,39.54],[-74.401,39.537],[-74.41,39.548],[-74.417,39.551],[-74.416,39.555],[-74.421,39.559],[-74.428,39.556],[-74.432,39.558],[-74.442,39.555],[-74.45,39.561],[-74.46,39.556],[-74.465,39.558],[-74.464,39.567],[-74.473,39.574],[-74.48,39.575],[-74.48,39.579],[-74.484,39.579],[-74.486,39.583],[-74.485,39.589],[-74.48,39.594],[-74.483,39.597],[-74.49,39.598],[-74.484,39.593],[-74.486,39.59],[-74.487,39.583],[-74.482,39.571],[-74.475,39.563],[-74.48,39.558],[-74.487,39.561],[-74.49,39.565],[-74.5,39.567],[-74.503,39.572],[-74.51,39.571],[-74.546,39.59],[-74.554,39.601],[-74.56,39.602],[-74.551,39.588],[-74.544,39.585],[-74.544,39.578],[-74.54,39.574],[-74.533,39.572],[-74.528,39.567],[-74.523,39.568],[-74.517,39.573],[-74.509,39.567],[-74.505,39.567],[-74.499,39.555],[-74.493,39.552],[-74.482,39.557],[-74.48,39.55],[-74.474,39.548],[-74.463,39.555],[-74.462,39.549],[-74.458,39.546],[-74.452,39.548],[-74.451,39.557],[-74.445,39.555],[-74.448,39.55],[-74.445,39.541],[-74.44,39.538],[-74.431,39.54],[-74.429,39.55],[-74.42,39.551],[-74.415,39.546],[-74.416,39.541],[-74.41,39.538],[-74.413,39.529],[-74.411,39.521],[-74.415,39.518],[-74.41,39.514],[-74.41,39.506],[-74.404,39.498],[-74.387,39.489],[-74.381,39.482],[-74.385,39.476],[-74.39,39.476],[-74.395,39.483],[-74.406,39.487],[-74.409,39.486],[-74.413,39.474],[-74.4,39.471],[-74.395,39.462],[-74.41,39.459],[-74.398,39.45],[-74.392,39.444],[-74.402,39.439],[-74.405,39.435],[-74.416,39.436],[-74.426,39.45],[-74.439,39.453],[-74.444,39.459],[-74.451,39.448],[-74.459,39.447],[-74.461,39.438],[-74.464,39.436],[-74.464,39.428],[-74.466,39.421],[-74.478,39.421],[-74.484,39.417],[-74.489,39.402],[-74.487,39.396],[-74.475,39.394],[-74.467,39.401],[-74.456,39.395],[-74.44,39.396],[-74.436,39.389],[-74.431,39.387],[-74.425,39.391],[-74.433,39.402],[-74.43,39.402],[-74.418,39.398],[-74.415,39.39],[-74.407,39.393],[-74.41,39.402],[-74.404,39.41],[-74.397,39.433],[-74.39,39.44],[-74.377,39.437],[-74.366,39.436],[-74.368,39.444],[-74.367,39.455],[-74.359,39.454],[-74.351,39.455],[-74.347,39.458],[-74.34,39.458],[-74.334,39.449],[-74.339,39.441],[-74.329,39.44],[-74.353,39.415],[-74.365,39.404],[-74.391,39.383],[-74.405,39.373],[-74.408,39.365],[-74.419,39.358],[-74.439,39.353],[-74.451,39.348],[-74.492,39.33],[-74.518,39.316],[-74.531,39.307],[-74.524,39.322],[-74.517,39.326],[-74.513,39.338],[-74.509,39.342],[-74.495,39.345],[-74.492,39.352],[-74.502,39.351],[-74.489,39.366],[-74.495,39.373],[-74.496,39.377],[-74.502,39.382],[-74.516,39.385],[-74.524,39.378],[-74.523,39.373],[-74.516,39.369],[-74.515,39.364],[-74.502,39.356],[-74.505,39.345],[-74.514,39.342],[-74.515,39.337],[-74.528,39.322],[-74.527,39.318],[-74.533,39.313],[-74.541,39.313],[-74.558,39.306],[-74.557,39.299],[-74.57,39.3],[-74.584,39.309],[-74.589,39.31],[-74.611,39.306],[-74.612,39.301],[-74.621,39.297],[-74.621,39.304],[-74.628,39.315],[-74.635,39.307],[-74.647,39.311],[-74.653,39.309],[-74.652,39.318],[-74.669,39.326],[-74.675,39.331],[-74.681,39.328],[-74.686,39.331],[-74.699,39.333],[-74.699,39.342],[-74.708,39.348],[-74.716,39.36],[-74.714,39.368],[-74.72,39.369],[-74.718,39.375],[-74.723,39.385],[-74.722,39.391],[-74.717,39.395],[-74.717,39.414],[-74.711,39.426],[-74.715,39.435],[-74.722,39.438],[-74.724,39.433],[-74.715,39.427],[-74.72,39.413],[-74.72,39.404],[-74.722,39.404],[-74.725,39.4],[-74.725,39.397],[-74.725,39.396],[-74.722,39.394],[-74.724,39.393],[-74.727,39.392],[-74.727,39.388],[-74.725,39.386],[-74.721,39.376],[-74.725,39.372],[-74.723,39.368],[-74.716,39.366],[-74.718,39.361],[-74.711,39.347],[-74.702,39.342],[-74.702,39.334],[-74.695,39.329],[-74.688,39.329],[-74.68,39.325],[-74.674,39.32],[-74.665,39.321],[-74.664,39.316],[-74.658,39.314],[-74.661,39.308],[-74.644,39.302],[-74.64,39.296],[-74.627,39.288],[-74.623,39.288],[-74.615,39.284],[-74.623,39.28],[-74.626,39.274],[-74.63,39.257],[-74.619,39.261],[-74.608,39.263],[-74.608,39.269],[-74.599,39.274],[-74.585,39.28],[-74.559,39.297],[-74.551,39.294],[-74.555,39.285],[-74.56,39.279],[-74.583,39.269],[-74.609,39.248],[-74.625,39.233],[-74.644,39.211],[-74.648,39.207],[-74.649,39.2],[-74.664,39.188],[-74.68,39.169],[-74.684,39.161],[-74.696,39.147],[-74.714,39.115],[-74.704,39.108],[-74.709,39.1],[-74.716,39.095],[-74.739,39.072],[-74.749,39.059],[-74.772,39.031],[-74.783,39.02],[-74.787,39.019],[-74.793,39.013],[-74.786,39.001],[-74.797,38.99],[-74.808,38.983],[-74.83,38.97],[-74.846,38.957],[-74.864,38.94],[-74.876,38.957],[-74.879,38.954],[-74.893,38.955],[-74.906,38.95],[-74.901,38.945],[-74.879,38.95],[-74.871,38.944],[-74.881,38.943],[-74.907,38.932],[-74.918,38.929],[-74.934,38.929],[-74.939,38.932],[-74.962,38.931],[-74.967,38.933],[-74.972,38.94],[-74.963,38.962],[-74.964,38.968],[-74.961,38.977],[-74.957,38.997],[-74.949,39.016],[-74.941,39.03],[-74.918,39.066],[-74.906,39.084],[-74.899,39.096],[-74.892,39.114],[-74.892,39.127],[-74.89,39.128],[-74.89,39.14],[-74.886,39.144],[-74.886,39.159],[-74.895,39.17],[-74.901,39.175],[-74.911,39.178],[-74.919,39.176],[-74.936,39.183],[-74.953,39.188],[-74.969,39.191],[-74.995,39.192],[-75.006,39.191],[-75.029,39.195],[-75.023,39.203],[-75.029,39.213],[-75.024,39.216],[-75.022,39.221],[-75.034,39.226],[-75.031,39.232],[-75.023,39.236],[-75.017,39.232],[-75.011,39.233],[-75.01,39.239],[-75.017,39.243],[-75.002,39.247],[-75.003,39.253],[-74.992,39.255],[-74.993,39.262],[-75,39.266],[-74.991,39.271],[-74.987,39.269],[-74.98,39.271],[-74.977,39.281],[-74.981,39.284],[-74.989,39.28],[-74.99,39.286],[-74.985,39.288],[-74.978,39.297],[-74.988,39.307],[-74.997,39.311],[-74.996,39.316],[-75.001,39.321],[-75.001,39.326],[-75.016,39.345],[-75.021,39.347],[-75.021,39.351],[-75.03,39.356],[-75.027,39.36],[-75.034,39.363],[-75.03,39.369],[-75.036,39.374],[-75.037,39.38],[-75.036,39.383],[-75.038,39.386],[-75.041,39.396],[-75.044,39.4],[-75.047,39.401],[-75.053,39.399],[-75.05,39.404],[-75.055,39.407],[-75.055,39.416],[-75.06,39.423],[-75.059,39.427],[-75.067,39.429],[-75.07,39.419],[-75.069,39.41],[-75.06,39.402],[-75.053,39.399],[-75.046,39.4],[-75.041,39.396],[-75.041,39.392],[-75.039,39.385],[-75.036,39.382],[-75.04,39.379],[-75.038,39.379],[-75.04,39.374],[-75.035,39.371],[-75.038,39.367],[-75.032,39.355],[-75.02,39.341],[-75.02,39.337],[-75.01,39.332],[-75.008,39.323],[-74.999,39.315],[-75.004,39.313],[-75,39.307],[-74.992,39.307],[-74.992,39.3],[-74.984,39.3],[-74.981,39.297],[-74.991,39.287],[-74.993,39.276],[-74.996,39.27],[-75.003,39.263],[-74.995,39.256],[-75.004,39.254],[-75.008,39.247],[-75.014,39.248],[-75.019,39.244],[-75.012,39.238],[-75.017,39.234],[-75.027,39.237],[-75.035,39.23],[-75.036,39.221],[-75.042,39.221],[-75.05,39.213],[-75.059,39.213],[-75.078,39.211],[-75.087,39.208],[-75.101,39.212],[-75.107,39.211],[-75.119,39.202],[-75.126,39.19],[-75.139,39.18],[-75.144,39.187],[-75.152,39.188],[-75.157,39.195],[-75.168,39.203],[-75.162,39.213],[-75.167,39.218],[-75.166,39.223],[-75.174,39.242],[-75.158,39.245],[-75.146,39.249],[-75.148,39.254],[-75.152,39.256],[-75.147,39.263],[-75.145,39.268],[-75.138,39.267],[-75.13,39.27],[-75.138,39.277],[-75.145,39.281],[-75.148,39.277],[-75.157,39.275],[-75.157,39.269],[-75.149,39.269],[-75.147,39.263],[-75.153,39.26],[-75.153,39.256],[-75.149,39.253],[-75.158,39.245],[-75.173,39.243],[-75.186,39.247],[-75.192,39.244],[-75.2,39.257],[-75.209,39.264],[-75.212,39.263],[-75.231,39.271],[-75.239,39.273],[-75.247,39.291],[-75.255,39.301],[-75.272,39.304],[-75.277,39.299],[-75.283,39.299],[-75.287,39.29],[-75.297,39.295],[-75.314,39.309],[-75.327,39.335],[-75.327,39.341],[-75.342,39.349],[-75.355,39.35],[-75.364,39.353],[-75.365,39.357],[-75.354,39.361],[-75.354,39.365],[-75.348,39.368],[-75.346,39.373],[-75.354,39.378],[-75.349,39.382],[-75.34,39.378],[-75.32,39.382],[-75.318,39.39],[-75.308,39.388],[-75.309,39.382],[-75.3,39.382],[-75.296,39.375],[-75.291,39.374],[-75.282,39.379],[-75.272,39.377],[-75.263,39.381],[-75.259,39.376],[-75.249,39.375],[-75.241,39.38],[-75.247,39.383],[-75.256,39.38],[-75.266,39.382],[-75.273,39.387],[-75.285,39.383],[-75.292,39.375],[-75.296,39.379],[-75.294,39.383],[-75.303,39.383],[-75.31,39.391],[-75.32,39.39],[-75.321,39.384],[-75.325,39.382],[-75.329,39.388],[-75.335,39.387],[-75.332,39.38],[-75.338,39.379],[-75.35,39.384],[-75.356,39.379],[-75.355,39.376],[-75.348,39.374],[-75.35,39.369],[-75.358,39.368],[-75.355,39.362],[-75.363,39.36],[-75.371,39.352],[-75.382,39.355],[-75.392,39.36],[-75.394,39.372],[-75.401,39.381],[-75.411,39.38],[-75.417,39.387],[-75.423,39.387],[-75.431,39.39],[-75.434,39.395],[-75.444,39.406],[-75.453,39.417],[-75.459,39.43],[-75.465,39.439],[-75.473,39.437],[-75.487,39.444],[-75.489,39.449],[-75.5,39.449],[-75.505,39.453],[-75.508,39.459],[-75.533,39.461],[-75.541,39.466],[-75.544,39.479],[-75.543,39.497],[-75.528,39.498],[-75.53,39.51],[-75.527,39.527],[-75.528,39.535],[-75.533,39.542],[-75.519,39.555],[-75.511,39.568],[-75.505,39.567],[-75.496,39.572],[-75.48,39.574],[-75.474,39.579],[-75.472,39.587],[-75.467,39.587],[-75.462,39.594],[-75.458,39.595],[-75.454,39.603],[-75.442,39.615],[-75.451,39.613],[-75.456,39.618],[-75.452,39.625],[-75.461,39.63],[-75.468,39.63],[-75.468,39.638],[-75.46,39.642],[-75.46,39.649],[-75.468,39.653],[-75.482,39.655],[-75.487,39.647],[-75.479,39.644],[-75.48,39.636],[-75.47,39.635],[-75.48,39.628],[-75.476,39.621],[-75.47,39.622],[-75.463,39.62],[-75.464,39.613],[-75.473,39.612],[-75.478,39.609],[-75.474,39.597],[-75.481,39.596],[-75.482,39.592],[-75.474,39.586],[-75.483,39.583],[-75.492,39.585],[-75.501,39.581],[-75.509,39.583],[-75.528,39.584],[-75.537,39.592],[-75.553,39.602],[-75.557,39.611],[-75.56,39.625],[-75.554,39.636],[-75.548,39.638],[-75.541,39.645],[-75.533,39.648],[-75.512,39.672],[-75.51,39.68],[-75.509,39.694],[-75.499,39.699],[-75.488,39.715],[-75.482,39.714],[-75.476,39.716],[-75.477,39.725],[-75.476,39.734],[-75.469,39.743],[-75.459,39.766],[-75.452,39.769],[-75.45,39.775],[-75.438,39.784],[-75.396,39.8],[-75.389,39.802],[-75.381,39.807],[-75.38,39.815],[-75.358,39.822],[-75.344,39.829],[-75.336,39.83],[-75.325,39.837],[-75.312,39.839],[-75.306,39.843],[-75.296,39.844],[-75.284,39.84],[-75.274,39.839],[-75.269,39.845],[-75.253,39.848],[-75.237,39.852],[-75.225,39.853],[-75.216,39.857],[-75.201,39.867],[-75.193,39.867],[-75.191,39.872],[-75.177,39.878],[-75.153,39.877],[-75.148,39.877],[-75.138,39.882],[-75.131,39.879],[-75.128,39.884],[-75.134,39.887],[-75.128,39.898],[-75.125,39.911],[-75.126,39.919],[-75.133,39.932],[-75.13,39.956],[-75.117,39.96],[-75.108,39.958],[-75.104,39.959],[-75.094,39.966],[-75.078,39.969],[-75.076,39.974],[-75.067,39.979],[-75.052,39.994],[-75.047,39.996],[-75.051,40],[-75.046,40.008],[-75.038,40.011],[-75.012,40.015],[-75.01,40.018],[-74.996,40.027],[-74.99,40.033],[-74.974,40.041],[-74.977,40.045],[-74.963,40.049],[-74.945,40.059],[-74.934,40.066],[-74.922,40.069],[-74.915,40.067],[-74.903,40.069],[-74.899,40.073],[-74.88,40.079],[-74.857,40.083],[-74.85,40.082],[-74.843,40.086],[-74.834,40.095],[-74.834,40.101],[-74.83,40.113],[-74.826,40.121],[-74.821,40.126],[-74.811,40.125],[-74.803,40.122],[-74.785,40.118],[-74.774,40.124],[-74.759,40.121],[-74.747,40.122],[-74.74,40.129],[-74.742,40.132],[-74.722,40.146],[-74.719,40.155],[-74.719,40.16],[-74.735,40.179],[-74.751,40.184],[-74.756,40.19],[-74.759,40.2],[-74.766,40.207],[-74.772,40.219],[-74.788,40.228],[-74.809,40.238],[-74.837,40.248],[-74.841,40.251],[-74.852,40.269],[-74.859,40.286],[-74.864,40.293],[-74.881,40.308],[-74.892,40.314],[-74.905,40.317],[-74.916,40.322],[-74.922,40.327],[-74.94,40.339],[-74.944,40.347],[-74.944,40.357],[-74.953,40.378],[-74.96,40.389],[-74.963,40.395],[-74.969,40.401],[-74.982,40.405],[-74.991,40.41],[-75.003,40.411],[-75.011,40.407],[-75.023,40.405],[-75.033,40.406],[-75.046,40.415],[-75.055,40.417],[-75.061,40.423],[-75.061,40.431],[-75.069,40.457],[-75.065,40.464],[-75.061,40.478],[-75.061,40.484],[-75.064,40.523],[-75.064,40.529],[-75.067,40.543],[-75.078,40.549],[-75.082,40.554],[-75.099,40.568],[-75.117,40.574],[-75.138,40.577],[-75.15,40.572],[-75.163,40.565],[-75.18,40.567],[-75.188,40.572],[-75.194,40.577],[-75.194,40.582],[-75.189,40.588],[-75.191,40.605],[-75.201,40.616],[-75.189,40.621],[-75.188,40.625],[-75.192,40.641],[-75.2,40.648],[-75.192,40.66],[-75.182,40.666],[-75.177,40.672],[-75.178,40.678],[-75.191,40.68],[-75.198,40.683],[-75.203,40.693],[-75.193,40.714],[-75.185,40.721],[-75.186,40.725],[-75.181,40.733],[-75.195,40.747],[-75.196,40.751],[-75.19,40.756],[-75.18,40.76],[-75.176,40.765],[-75.175,40.771],[-75.171,40.777],[-75.163,40.778],[-75.143,40.773],[-75.132,40.774],[-75.121,40.787],[-75.108,40.79],[-75.1,40.799],[-75.099,40.809],[-75.089,40.816],[-75.084,40.822],[-75.084,40.829],[-75.094,40.837],[-75.096,40.846],[-75.084,40.849],[-75.077,40.847],[-75.066,40.847],[-75.053,40.857],[-75.05,40.866],[-75.052,40.873],[-75.061,40.882],[-75.075,40.895],[-75.075,40.907],[-75.078,40.914],[-75.094,40.924],[-75.105,40.936],[-75.105,40.94],[-75.111,40.948],[-75.117,40.953],[-75.118,40.964],[-75.121,40.97],[-75.131,40.97],[-75.135,40.977],[-75.131,40.983],[-75.131,40.99],[-75.104,41.005],[-75.097,41.007],[-75.086,41.014],[-75.078,41.015],[-75.064,41.02],[-75.05,41.028],[-75.04,41.032],[-75.033,41.037],[-75.02,41.042],[-75.02,41.052],[-75.014,41.062],[-75.008,41.064],[-75.001,41.072],[-74.992,41.077],[-74.983,41.079],[-74.969,41.086],[-74.966,41.095],[-74.969,41.097],[-74.983,41.09],[-74.991,41.091],[-74.98,41.11],[-74.973,41.113],[-74.966,41.113],[-74.947,41.124],[-74.947,41.127],[-74.932,41.133],[-74.923,41.138],[-74.903,41.157],[-74.899,41.167],[-74.888,41.173],[-74.878,41.186],[-74.875,41.195],[-74.858,41.218],[-74.859,41.222],[-74.867,41.228],[-74.861,41.238],[-74.861,41.242],[-74.855,41.25],[-74.848,41.251],[-74.839,41.26],[-74.84,41.271],[-74.837,41.278],[-74.826,41.278],[-74.81,41.296],[-74.806,41.303],[-74.791,41.311],[-74.795,41.318],[-74.792,41.322],[-74.766,41.325],[-74.761,41.337],[-74.755,41.346],[-74.75,41.347],[-74.729,41.346],[-74.721,41.347],[-74.696,41.358],[-74.642,41.333],[-74.54,41.287],[-74.491,41.264],[-74.45,41.245],[-74.396,41.218],[-74.362,41.2],[-74.331,41.186],[-74.344,41.168],[-74.344,41.157],[-74.347,41.152],[-74.34,41.148],[-74.339,41.156],[-74.333,41.164],[-74.332,41.169],[-74.327,41.173],[-74.322,41.182],[-74.251,41.15],[-74.168,41.115],[-74.104,41.087],[-73.999,41.041],[-74.001,41.03],[-73.999,41.016],[-73.993,41.014],[-73.987,41.016],[-73.987,41.031],[-73.992,41.037],[-73.903,40.997],[-73.903,40.993],[-73.909,40.974],[-73.91,40.969],[-73.917,40.952],[-73.918,40.944],[-73.922,40.937],[-73.928,40.915],[-73.945,40.877],[-73.959,40.852],[-73.968,40.841],[-73.969,40.831],[-73.975,40.821],[-73.985,40.808],[-73.992,40.802],[-73.992,40.797],[-74.01,40.774],[-74.017,40.767],[-74.019,40.76],[-74.023,40.758],[-74.022,40.745],[-74.03,40.734],[-74.03,40.726],[-74.035,40.706],[-74.041,40.705],[-74.051,40.696],[-74.058,40.693],[-74.065,40.697],[-74.074,40.688],[-74.071,40.682],[-74.078,40.675],[-74.065,40.669],[-74.07,40.661],[-74.09,40.668],[-74.102,40.669],[-74.091,40.661],[-74.087,40.654],[-74.098,40.649],[-74.113,40.651],[-74.126,40.642],[-74.133,40.644],[-74.142,40.642],[-74.146,40.647],[-74.112,40.689],[-74.102,40.703],[-74.106,40.704],[-74.106,40.714],[-74.111,40.719],[-74.12,40.716],[-74.113,40.703],[-74.12,40.705],[-74.124,40.697],[-74.132,40.688],[-74.136,40.689],[-74.144,40.68],[-74.139,40.673],[-74.149,40.66],[-74.157,40.663],[-74.178,40.646],[-74.186,40.646],[-74.202,40.632],[-74.204,40.624],[-74.202,40.617],[-74.205,40.606],[-74.2,40.6],[-74.203,40.593],[-74.21,40.588],[-74.214,40.571],[-74.214,40.566],[-74.22,40.559],[-74.232,40.563],[-74.235,40.56],[-74.252,40.554],[-74.255,40.549],[-74.254,40.535],[-74.251,40.522],[-74.256,40.52],[-74.266,40.5],[-74.284,40.501],[-74.288,40.509],[-74.295,40.512],[-74.312,40.509],[-74.324,40.499],[-74.331,40.491],[-74.338,40.487],[-74.353,40.485],[-74.356,40.48],[-74.339,40.481],[-74.334,40.482],[-74.32,40.489],[-74.313,40.5],[-74.303,40.506],[-74.295,40.506],[-74.289,40.494],[-74.276,40.491],[-74.274,40.484],[-74.267,40.478],[-74.267,40.471],[-74.262,40.465],[-74.243,40.458],[-74.237,40.458],[-74.23,40.452],[-74.225,40.453],[-74.21,40.447],[-74.205,40.439],[-74.194,40.441],[-74.187,40.447],[-74.183,40.457],[-74.176,40.458],[-74.17,40.451],[-74.158,40.447],[-74.143,40.45],[-74.139,40.455],[-74.133,40.455],[-74.117,40.446],[-74.088,40.438],[-74.077,40.433],[-74.056,40.422],[-74.047,40.419],[-74.035,40.417],[-74.022,40.414],[-74.012,40.413],[-73.994,40.409],[-73.982,40.403],[-73.981,40.387],[-73.995,40.384],[-74.001,40.39],[-74.008,40.388],[-74.017,40.389],[-74.019,40.384],[-74.027,40.382],[-74.043,40.374],[-74.052,40.37],[-74.056,40.371],[-74.067,40.366],[-74.069,40.352],[-74.06,40.355],[-74.054,40.36],[-74.053,40.363],[-74.047,40.368],[-74.03,40.368],[-74.023,40.376],[-74.017,40.375],[-74.009,40.379],[-74.001,40.378],[-73.993,40.375],[-73.979,40.378],[-73.976,40.365],[-73.986,40.362],[-73.986,40.356],[-74.001,40.353],[-74.006,40.349],[-74.008,40.343],[-74.016,40.342],[-74.022,40.338],[-74.018,40.332],[-74.023,40.325],[-74.007,40.325],[-74.003,40.332],[-73.995,40.33],[-73.988,40.336],[-73.979,40.337],[-73.975,40.344],[-73.977,40.348],[-73.975,40.356],[-73.975,40.366],[-73.977,40.399],[-73.984,40.408],[-73.98,40.411],[-73.986,40.426],[-73.992,40.431],[-73.991,40.44],[-73.997,40.448],[-74.004,40.448],[-74.003,40.454],[-74.008,40.467],[-74.018,40.471],[-74.014,40.477],[-74.007,40.475],[-73.996,40.469],[-73.994,40.463],[-73.978,40.44],[-73.979,40.421],[-73.975,40.4],[-73.973,40.384],[-73.972,40.355],[-73.974,40.329],[-73.976,40.315],[-73.977,40.304],[-73.982,40.284],[-73.982,40.278],[-73.992,40.249],[-73.998,40.223],[-73.998,40.22],[-74.004,40.206],[-74.009,40.188],[-74.017,40.189],[-74.025,40.187],[-74.035,40.198],[-74.039,40.195],[-74.038,40.188],[-74.042,40.185],[-74.055,40.19],[-74.053,40.182],[-74.045,40.177],[-74.031,40.179],[-74.019,40.187],[-74.011,40.187],[-74.01,40.182],[-74.016,40.167],[-74.022,40.146],[-74.031,40.119],[-74.034,40.103],[-74.033,40.1],[-74.04,40.079],[-74.047,40.047],[-74.056,40.011],[-74.064,39.977],[-74.069,39.946],[-74.077,39.911],[-74.081,39.88],[-74.084,39.858],[-74.089,39.811],[-74.093,39.785],[-74.101,39.751],[-74.11,39.745],[-74.116,39.737],[-74.125,39.721],[-74.132,39.705],[-74.14,39.691],[-74.157,39.668],[-74.174,39.647],[-74.191,39.625],[-74.211,39.595],[-74.24,39.555],[-74.249,39.548],[-74.261,39.532],[-74.266,39.529],[-74.277,39.513],[-74.285,39.513],[-74.282,39.522],[-74.263,39.537],[-74.257,39.553],[-74.252,39.553],[-74.245,39.56],[-74.244,39.567],[-74.236,39.573],[-74.229,39.58],[-74.228,39.589],[-74.217,39.597],[-74.215,39.603],[-74.202,39.616],[-74.199,39.625],[-74.188,39.636],[-74.186,39.645],[-74.195,39.645],[-74.201,39.65],[-74.197,39.663],[-74.188,39.659],[-74.177,39.658],[-74.174,39.665],[-74.164,39.669],[-74.155,39.679],[-74.144,39.694],[-74.143,39.703],[-74.138,39.708],[-74.13,39.72],[-74.136,39.726],[-74.132,39.732],[-74.124,39.733],[-74.116,39.749],[-74.122,39.749],[-74.127,39.755],[-74.12,39.76],[-74.117,39.754],[-74.112,39.752],[-74.11,39.762],[-74.104,39.765],[-74.102,39.772],[-74.119,39.781],[-74.121,39.789],[-74.117,39.797],[-74.106,39.786],[-74.097,39.785],[-74.097,39.79],[-74.103,39.8],[-74.1,39.803],[-74.095,39.817],[-74.092,39.831],[-74.093,39.84],[-74.09,39.844],[-74.089,39.863],[-74.087,39.868],[-74.087,39.878],[-74.085,39.886],[-74.09,39.895],[-74.086,39.901],[-74.086,39.914],[-74.08,39.924],[-74.079,39.937],[-74.084,39.942]]],[[[-74.762,39.077],[-74.767,39.077],[-74.765,39.085],[-74.758,39.085],[-74.76,39.093],[-74.762,39.107],[-74.766,39.11],[-74.774,39.111],[-74.79,39.103],[-74.791,39.097],[-74.797,39.093],[-74.795,39.089],[-74.788,39.091],[-74.785,39.078],[-74.782,39.072],[-74.775,39.069],[-74.768,39.07],[-74.771,39.062],[-74.763,39.057],[-74.753,39.067],[-74.762,39.077]]],[[[-74.856,40.615],[-74.847,40.614],[-74.841,40.611],[-74.814,40.6],[-74.804,40.603],[-74.801,40.608],[-74.808,40.62],[-74.815,40.625],[-74.827,40.627],[-74.83,40.631],[-74.84,40.632],[-74.843,40.631],[-74.843,40.62],[-74.851,40.619],[-74.856,40.615]]]]},"properties":null}
]}